"UN_Code","Identifier","ISO2_Code","ISO3_Code","Name_En","Name_Fr","Name_Es","Name_Ar","Name_Cn","Name_Ru","Official_Name_En","Official_Name_Fr","Official_Name_Es","Official_Name_Ar","Official_Name_Cn","Official_Name_Ru","Continent_Group_En","Continent_Group_Fr","Continent_Group_Es","Continent_Group_Ar","Continent_Group_Cn","Continent_Group_Ru","EcoClass_Group_En","EcoClass_Group_Fr","EcoClass_Group_Es","EcoClass_Group_Ar","EcoClass_Group_Cn","EcoClass_Group_Ru","GeoRegion_Group_En","GeoRegion_Group_Fr","GeoRegion_Group_Es","GeoRegion_Group_Ar","GeoRegion_Group_Cn","GeoRegion_Group_Ru"
"051","1","AM","ARM","Armenia","Arménie","Armenia","أرمينيا","亚美尼亚","Армения","the Republic of Armenia","la République d'Arménie","la República de Armenia","جمهوريّة أرمينيا","亚美尼亚共和国","Республика Армения","Asia","Asie","Asia","آسيا","亚洲","Азия","Upper-middle income countries","Pays à revenu intermédiaire de la tranche supérieure","Países de ingresos medianos altos","بلد من الشريحة العليا من البلدان المتوسطة الدخل","中上等收入国家","страна с уровнем дохода выше среднего","Western Asia","Asie occidentale","Asia occidental","غربي آسيا","西亚","Западная Азия"
"004","2","AF","AFG","Afghanistan","Afghanistan","Afganistán","أفغانستان","阿富汗","Афганистан","the Islamic Republic of Afghanistan","la République islamique d'Afghanistan","la República Islámica del Afganistán","جمهوريّة أفغانستان الإسلامية","阿富汗伊斯兰共和国","Исламская Республика Афганистан","Asia","Asie","Asia","آسيا","亚洲","Азия","Low-income countries","Pays à faible revenu","Países de bajos ingresos","بلدان الدخل المنخفض","低收入国家(简写为LIC)","страна с низким уровнем дохода","Southern Asia","Asie méridionale","Asia meridional","جنوب آسيا","南亚","Южная Азия"
"008","3","AL","ALB","Albania","Albanie","Albania","ألبانيا","阿尔巴尼亚","Албания","the Republic of Albania","la République d'Albanie","la República de Albania","جمهوريّة ألبانيا","阿尔巴尼亚共和国","Республика Албания","Europe","Europe","Europa","أوروبا","欧洲","Европа","Upper-middle income countries","Pays à revenu intermédiaire de la tranche supérieure","Países de ingresos medianos altos","بلد من الشريحة العليا من البلدان المتوسطة الدخل","中上等收入国家","страна с уровнем дохода выше среднего","Southern Europe","Europe méridionale","Europa meridional","أوروبا الجنوبية","南欧","Южная Европа"
"012","4","DZ","DZA","Algeria","Algérie","Argelia","الجزائر","阿尔及利亚","Алжир","the People's Democratic Republic of Algeria","la République algérienne démocratique et populaire","la República Argelina Democrática y Popular","الجمهوريّة الجزائريّة الديمقراطيّة الشعبيّة","阿尔及利亚民主人民共和国","Алжирская Народная Демократическая Республика","Africa","Afrique","África","أفريقيا","非洲","Африка","Upper-middle income countries","Pays à revenu intermédiaire de la tranche supérieure","Países de ingresos medianos altos","بلد من الشريحة العليا من البلدان المتوسطة الدخل","中上等收入国家","страна с уровнем дохода выше среднего","Northern Africa","Afrique septentrionale","África septentrional","أفريقيا الشمالية","北非","Северная Африка"
"016","5","AS","ASM","American Samoa","Samoa américaines","Samoa americana","ساموا الأمريكيّة","美属萨摩亚","Американское Самоа","American Samoa","les Samoa américaines","Samoa americana","ساموا الأمريكيّة","美属萨摩亚","Американское Самоа","Oceania","Océanie","Oceanía","أوقيانوسيا","大洋洲","Океания","High-income countries","Pays à revenu élevé","Países de ingresos altos","","高收入国家","страна с высоким уровнем дохода","Polynesia","Polynésie","Polinesia","بولينيزيا","波利尼西亚","Полинезия"
"020","6","AD","AND","Andorra","Andorre","Andorra","أندورا","安道尔","Андорра","the Principality of Andorra","la Principauté d'Andorre","el Principado de Andorra","إمارة أندورا","安道尔公国","Княжество Андорра","Europe","Europe","Europa","أوروبا","欧洲","Европа","High-income countries","Pays à revenu élevé","Países de ingresos altos","","高收入国家","страна с высоким уровнем дохода","Southern Europe","Europe méridionale","Europa meridional","أوروبا الجنوبية","南欧","Южная Европа"
"024","7","AO","AGO","Angola","Angola","Angola","أنغولا","安哥拉","Ангола","the Republic of Angola","la République d'Angola","la República de Angola","جمهوريّة أنغولا","安哥拉共和国","Республика Ангола","Africa","Afrique","África","أفريقيا","非洲","Африка","Lower-middle income countries","Pays à revenu intermédiaire de la tranche inférieure","Países de ingresos medianos bajos","","","","Middle Africa","Afrique centrale","África central","وسط أفريقيا","中非","Центральная Африка"
"028","8","AG","ATG","Antigua and Barbuda","Antigua-et-Barbuda","Antigua y Barbuda","أنتيغوا وبربودا","安提瓜和巴布达","Антигуа и Барбуда","Antigua and Barbuda","Antigua-et-Barbuda","Antigua y Barbuda","أنتيغوا وبربودا","安提瓜和巴布达","Антигуа и Барбуда","Americas","Amériques","Américas","الأمريكتان","美洲","Северная и Южная Америка","High-income countries","Pays à revenu élevé","Países de ingresos altos","","高收入国家","страна с высоким уровнем дохода","Caribbean","Caraïbes","Caribe","منطقة البحر الكاريبي","加勒比","Карибский бассейн"
"032","9","AR","ARG","Argentina","Argentine","Argentina","الأرجنتين","阿根廷","Аргентина","the Argentine Republic","la République argentine","la República Argentina","جمهوريّة الأرجنتين","阿根廷共和国","Аргентинская Республика","Americas","Amériques","Américas","الأمريكتان","美洲","Северная и Южная Америка","Upper-middle income countries","Pays à revenu intermédiaire de la tranche supérieure","Países de ingresos medianos altos","بلد من الشريحة العليا من البلدان المتوسطة الدخل","中上等收入国家","страна с уровнем дохода выше среднего","South America","Amérique du Sud","América del Sur","أمريكا الجنوبية","南美洲","Южная Америка"
"036","10","AU","AUS","Australia","Australie","Australia","أستراليا","澳大利亚","Австралия","Australia","l'Australie","Australia","أستراليا","澳大利亚","Австралия","Oceania","Océanie","Oceanía","أوقيانوسيا","大洋洲","Океания","High-income countries","Pays à revenu élevé","Países de ingresos altos","","高收入国家","страна с высоким уровнем дохода","Australia and New Zealand","Australie et Nouvelle-Zélande","Australia y Nueva Zelandia","أستراليا ونيوزيلندا","澳大利亚和新西兰","Австралия и Новая Зеландия"
"040","11","AT","AUT","Austria","Autriche","Austria","النمسا","奥地利","Австрия","the Republic of Austria","la République d'Autriche","la República de Austria","جمهوريّة النمسا","奥地利共和国","Австрийская Республика","Europe","Europe","Europa","أوروبا","欧洲","Европа","High-income countries","Pays à revenu élevé","Países de ingresos altos","","高收入国家","страна с высоким уровнем дохода","Western Europe","Europe occidentale","Europa occidental","أوروبا الغربية","西欧","Западная Европа"
"044","12","BS","BHS","Bahamas","Bahamas","Bahamas","جزر البهاما","巴哈马","Багамские Острова","the Commonwealth of the Bahamas","le Commonwealth des Bahamas","el Commonwealth de las Bahamas","كمنولث جزر البهاما","巴哈马国","Содружество Багамских Островов","Americas","Amériques","Américas","الأمريكتان","美洲","Северная и Южная Америка","High-income countries","Pays à revenu élevé","Países de ingresos altos","","高收入国家","страна с высоким уровнем дохода","Caribbean","Caraïbes","Caribe","منطقة البحر الكاريبي","加勒比","Карибский бассейн"
"048","13","BH","BHR","Bahrain","Bahreïn","Bahrein","البحرين","巴林","Бахрейн","the Kingdom of Bahrain","le Royaume de Bahreïn","el Reino de Bahrein","مملكة البحرين","巴林王国","Королевство Бахрейн","Asia","Asie","Asia","آسيا","亚洲","Азия","High-income countries","Pays à revenu élevé","Países de ingresos altos","","高收入国家","страна с высоким уровнем дохода","Western Asia","Asie occidentale","Asia occidental","غربي آسيا","西亚","Западная Азия"
"052","14","BB","BRB","Barbados","Barbade","Barbados","بربادوس","巴巴多斯","Барбадос","Barbados","la Barbade","Barbados","بربادوس","巴巴多斯","Барбадос","Americas","Amériques","Américas","الأمريكتان","美洲","Северная и Южная Америка","High-income countries","Pays à revenu élevé","Países de ingresos altos","","高收入国家","страна с высоким уровнем дохода","Caribbean","Caraïbes","Caribe","منطقة البحر الكاريبي","加勒比","Карибский бассейн"
"058","15","","","Belgium-Luxembourg [former]","Belgique-Luxembourg [ex-]","Belgica-Luxemburgo [ex]","","","","","","","","","","Europe","Europe","Europa","أوروبا","欧洲","Европа","Countries not classified by World Bank","Pays pas classé par la Banque Mondiale","Países no clasificados por el Banco Mundial","","","","Western Europe","Europe occidentale","Europa occidental","أوروبا الغربية","西欧","Западная Европа"
"050","16","BD","BGD","Bangladesh","Bangladesh","Bangladesh","بنغلاديش","孟加拉国","Бангладеш","the People's Republic of Bangladesh","la République populaire du Bangladesh","la República Popular de Bangladesh","جمهوريّة بنغلاديش الشعبيّة","孟加拉人民共和国","Народная Республика Бангладеш","Asia","Asie","Asia","آسيا","亚洲","Азия","Lower-middle income countries","Pays à revenu intermédiaire de la tranche inférieure","Países de ingresos medianos bajos","","","","Southern Asia","Asie méridionale","Asia meridional","جنوب آسيا","南亚","Южная Азия"
"060","17","BM","BMU","Bermuda","Bermudes","Bermudas","برمودا","百慕大","Бермудские острова","Bermuda","les Bermudes","Bermudas","برمودا","百慕大","Бермудские острова","Americas","Amériques","Américas","الأمريكتان","美洲","Северная и Южная Америка","High-income countries","Pays à revenu élevé","Países de ingresos altos","","高收入国家","страна с высоким уровнем дохода","Northern America","Amérique du Nord","América del Norte","أمريكا الشمالية","北美","Северная Америка"
"064","18","BT","BTN","Bhutan","Bhoutan","Bhután","بوتان","不丹","Бутан","the Kingdom of Bhutan","le Royaume du Bhoutan","el Reino de Bhután","مملكة بوتان","不丹王国","Королевство Бутан","Asia","Asie","Asia","آسيا","亚洲","Азия","Lower-middle income countries","Pays à revenu intermédiaire de la tranche inférieure","Países de ingresos medianos bajos","","","","Southern Asia","Asie méridionale","Asia meridional","جنوب آسيا","南亚","Южная Азия"
"068","19","BO","BOL","Bolivia (Plurinational State of)","Bolivie (État plurinational de)","Bolivia (Estado Plurinacional de)","بوليفيا (دولة - المتعددة القوميات)","多民族玻利维亚国","Боливия (Многонациональное Государство)","the Plurinational State of Bolivia","l'État plurinational de Bolivie","el Estado Plurinacional de Bolivia","دولة بوليفيا المتعددة القوميات","多民族玻利维亚国","Многонациональное Государство Боливия","Americas","Amériques","Américas","الأمريكتان","美洲","Северная и Южная Америка","Lower-middle income countries","Pays à revenu intermédiaire de la tranche inférieure","Países de ingresos medianos bajos","","","","South America","Amérique du Sud","América del Sur","أمريكا الجنوبية","南美洲","Южная Америка"
"072","20","BW","BWA","Botswana","Botswana","Botswana","بوتسوانا","博茨瓦纳","Ботсвана","the Republic of Botswana","la République du Botswana","la República de Botswana","جمهوريّة بوتسوانا","博茨瓦纳共和国","Республика Ботсвана","Africa","Afrique","África","أفريقيا","非洲","Африка","Upper-middle income countries","Pays à revenu intermédiaire de la tranche supérieure","Países de ingresos medianos altos","بلد من الشريحة العليا من البلدان المتوسطة الدخل","中上等收入国家","страна с уровнем дохода выше среднего","Southern Africa","Afrique australe","África austral","الجنوب الأفريقي","南部非洲","Южная часть Африки"
"076","21","BR","BRA","Brazil","Brésil","Brasil","البرازيل","巴西","Бразилия","the Federative Republic of Brazil","la République fédérative du Brésil","la República Federativa del Brasil","جمهورية البرازيل الاتحادية","巴西联邦共和国","Федеративная Республика Бразилия","Americas","Amériques","Américas","الأمريكتان","美洲","Северная и Южная Америка","Upper-middle income countries","Pays à revenu intermédiaire de la tranche supérieure","Países de ingresos medianos altos","بلد من الشريحة العليا من البلدان المتوسطة الدخل","中上等收入国家","страна с уровнем дохода выше среднего","South America","Amérique du Sud","América del Sur","أمريكا الجنوبية","南美洲","Южная Америка"
"533","22","AW","ABW","Aruba","Aruba","Aruba","أَروبا","阿鲁巴岛","Аруба","Aruba","Aruba","Aruba","أَروبا","阿鲁巴岛","Аруба","Americas","Amériques","Américas","الأمريكتان","美洲","Северная и Южная Америка","High-income countries","Pays à revenu élevé","Países de ingresos altos","","高收入国家","страна с высоким уровнем дохода","Caribbean","Caraïbes","Caribe","منطقة البحر الكاريبي","加勒比","Карибский бассейн"
"084","23","BZ","BLZ","Belize","Belize","Belice","بليز","伯利兹","Белиз","Belize","le Belize","Belice","بليز","伯利兹","Белиз","Americas","Amériques","Américas","الأمريكتان","美洲","Северная и Южная Америка","Upper-middle income countries","Pays à revenu intermédiaire de la tranche supérieure","Países de ingresos medianos altos","بلد من الشريحة العليا من البلدان المتوسطة الدخل","中上等收入国家","страна с уровнем дохода выше среднего","Central America","Amérique centrale","América central","أمريكا الوسطى","中美洲","Центральная Америка"
"086","24","IO","IOT","British Indian Ocean Territory [former]","Territoire britannique de l'océan Indien [ex-]","Territorio Británico del Océano Índico [ex]","المناطق البريطانيّة في المحيط الهندي [السابق]","英属印度洋领地 [以前的]","Британская территория в Индийском океане [бывший]","the British Indian Ocean Territory [former]","le Territoire britannique de l'océan Indien [ex-]","el Territorio Británico del Océano Índico [ex]","المناطق البريطانيّة في المحيط الهندي [السابق]","英属印度洋领地 [以前的]","Британская территория в Индийском океане [бывший]","Africa","Afrique","África","أفريقيا","非洲","Африка","Countries not classified by World Bank","Pays pas classé par la Banque Mondiale","Países no clasificados por el Banco Mundial","","","","Eastern Africa","Afrique orientale","África oriental","شرق أفريقيا","东非","Восточная Африка"
"090","25","SB","SLB","Solomon Islands","Îles Salomon","Islas Salomón","جزر سليمان","所罗门群岛","Соломоновы Острова","Solomon Islands","les Îles Salomon","las Islas Salomón","جزر سليمان","所罗门群岛","Соломоновы Острова","Oceania","Océanie","Oceanía","أوقيانوسيا","大洋洲","Океания","Lower-middle income countries","Pays à revenu intermédiaire de la tranche inférieure","Países de ingresos medianos bajos","","","","Melanesia","Mélanésie","Melanesia","ميلانيزيا","美拉尼西亚","Меланезия"
"096","26","BN","BRN","Brunei Darussalam","Brunéi Darussalam","Brunei Darussalam","بروني دار السلام","文莱达鲁萨兰国","Бруней-Даруссалам","Brunei Darussalam","le Brunéi Darussalam","Brunei Darussalam","بروني دار السلام","文莱达鲁萨兰国","Бруней-Даруссалам","Asia","Asie","Asia","آسيا","亚洲","Азия","High-income countries","Pays à revenu élevé","Países de ingresos altos","","高收入国家","страна с высоким уровнем дохода","South-Eastern Asia","Asie du Sud-Est","Asia sudoriental","جنوب شرقي آسيا","东南亚","Юго-Восточная Азия"
"100","27","BG","BGR","Bulgaria","Bulgarie","Bulgaria","بلغاريا","保加利亚","Болгария","the Republic of Bulgaria","la République de Bulgarie","la República de Bulgaria","جمهوريّة بلغاريا","保加利亚共和国","Республика Болгария","Europe","Europe","Europa","أوروبا","欧洲","Европа","High-income countries","Pays à revenu élevé","Países de ingresos altos","","高收入国家","страна с высоким уровнем дохода","Eastern Europe","Europe orientale","Europa oriental","أوروبا الشرقية","东欧","Восточная Европа"
"104","28","MM","MMR","Myanmar","Myanmar","Myanmar","ميانمار","缅甸","Мьянма","the Republic of the Union of Myanmar","la République de l'Union du Myanmar","la República de la Unión de Myanmar","جمهوريّة اتحاد ميانمار","缅甸联邦共和国","Республика Союз Мьянма","Asia","Asie","Asia","آسيا","亚洲","Азия","Lower-middle income countries","Pays à revenu intermédiaire de la tranche inférieure","Países de ingresos medianos bajos","","","","South-Eastern Asia","Asie du Sud-Est","Asia sudoriental","جنوب شرقي آسيا","东南亚","Юго-Восточная Азия"
"108","29","BI","BDI","Burundi","Burundi","Burundi","بوروندي","布隆迪","Бурунди","the Republic of Burundi","la République du Burundi","la República de Burundi","جمهوريّة بوروندي","布隆迪共和国","Республика Бурунди","Africa","Afrique","África","أفريقيا","非洲","Африка","Low-income countries","Pays à faible revenu","Países de bajos ingresos","بلدان الدخل المنخفض","低收入国家(简写为LIC)","страна с низким уровнем дохода","Eastern Africa","Afrique orientale","África oriental","شرق أفريقيا","东非","Восточная Африка"
"010","30","AQ","ATA","Antarctica","Antarctique","Antártida","أنتارتيكا","南极洲","Антарктика","Antarctica","l'Antarctique","la Antártida","أنتارتيكا","南极洲","Антарктика","","","","","","","Countries not classified by World Bank","Pays pas classé par la Banque Mondiale","Países no clasificados por el Banco Mundial","","","","","","","","",""
"074","31","BV","BVT","Bouvet Island","Île Bouvet","Isla Bouvet","جزر بوفيه","博维特岛","остров Буве","Bouvet Island","l'Île Bouvet","la Isla Bouvet","جزر بوفيه","博维特岛","остров Буве","Americas","Amériques","Américas","الأمريكتان","美洲","Северная и Южная Америка","Countries not classified by World Bank","Pays pas classé par la Banque Mondiale","Países no clasificados por el Banco Mundial","","","","South America","Amérique du Sud","América del Sur","أمريكا الجنوبية","南美洲","Южная Америка"
"120","32","CM","CMR","Cameroon","Cameroun","Camerún","الكاميرون","喀麦隆","Камерун","the Republic of Cameroon","la République du Cameroun","la República del Camerún","جمهوريّة الكاميرون","喀麦隆共和国","Республика Камерун","Africa","Afrique","África","أفريقيا","非洲","Африка","Lower-middle income countries","Pays à revenu intermédiaire de la tranche inférieure","Países de ingresos medianos bajos","","","","Middle Africa","Afrique centrale","África central","وسط أفريقيا","中非","Центральная Африка"
"124","33","CA","CAN","Canada","Canada","Canadá","كندا","加拿大","Канада","Canada","le Canada","el Canadá","كندا","加拿大","Канада","Americas","Amériques","Américas","الأمريكتان","美洲","Северная и Южная Америка","High-income countries","Pays à revenu élevé","Países de ingresos altos","","高收入国家","страна с высоким уровнем дохода","Northern America","Amérique du Nord","América del Norte","أمريكا الشمالية","北美","Северная Америка"
"128","34","","","Canton and Enderbury Islands [former]","Îles Canton et Enderbury [ex-]","Islas Canton y Enderbury [ex]","جزر كانتون وإنديربيري [السابق]","坎顿和恩德贝里群岛 [以前的]","острова Кантон и Эндербери [бывший]","the Canton and Enderbury Islands  [former]","les Îles Canton et Enderbury [ex-]","las Islas Canton y Enderbury [ex]","جزر كانتون وإنديربيري [السابق]","坎顿和恩德贝里群岛 [以前的]","острова Кантон и Эндербери [бывший]","","","","","","","","","","","","","","","","","",""
"132","35","CV","CPV","Cabo Verde","Cabo Verde","Cabo Verde","كابو فيردي","佛得角","Кабо-Верде","the Republic of Cabo Verde","la République de Cabo Verde","la República de Cabo Verde","جمهوريّة كابو فيردي","佛得角共和国","Республика Кабо-Верде","Africa","Afrique","África","أفريقيا","非洲","Африка","Lower-middle income countries","Pays à revenu intermédiaire de la tranche inférieure","Países de ingresos medianos bajos","","","","Western Africa","Afrique occidentale","África occidental","غرب أفريقيا","西非","Западная Африка"
"136","36","KY","CYM","Cayman Islands","Îles Caïmanes","Islas Caimán","جزر كايمان","开曼群岛","Каймановы острова","the Cayman Islands","les Îles Caïmanes","las Islas Caimán","جزر كايمان","开曼群岛","Каймановы острова","Americas","Amériques","Américas","الأمريكتان","美洲","Северная и Южная Америка","High-income countries","Pays à revenu élevé","Países de ingresos altos","","高收入国家","страна с высоким уровнем дохода","Caribbean","Caraïbes","Caribe","منطقة البحر الكاريبي","加勒比","Карибский бассейн"
"140","37","CF","CAF","Central African Republic","République centrafricaine","República Centroafricana","جمهوريّة أفريقيا الوسطى","中非共和国","Центральноафриканская Республика","the Central African Republic","la République centrafricaine","la República Centroafricana","جمهوريّة أفريقيا الوسطى","中非共和国","Центральноафриканская Республика","Africa","Afrique","África","أفريقيا","非洲","Африка","Low-income countries","Pays à faible revenu","Países de bajos ingresos","بلدان الدخل المنخفض","低收入国家(简写为LIC)","страна с низким уровнем дохода","Middle Africa","Afrique centrale","África central","وسط أفريقيا","中非","Центральная Африка"
"144","38","LK","LKA","Sri Lanka","Sri Lanka","Sri Lanka","سري لانكا","斯里兰卡","Шри-Ланка","the Democratic Socialist Republic of Sri Lanka","la République socialiste démocratique de Sri Lanka","la República Socialista Democrática de Sri Lanka","جمهوريّة سري لانكا الاشتراكيّة الديمقراطيّة","斯里兰卡民主社会主义共和国","Демократическая Социалистическая Республика Шри-Ланка","Asia","Asie","Asia","آسيا","亚洲","Азия","Lower-middle income countries","Pays à revenu intermédiaire de la tranche inférieure","Países de ingresos medianos bajos","","","","Southern Asia","Asie méridionale","Asia meridional","جنوب آسيا","南亚","Южная Азия"
"148","39","TD","TCD","Chad","Tchad","Chad","تشاد","乍得","Чад","the Republic of Chad","la République du Tchad","la República del Chad","جمهوريّة تشاد","乍得共和国","Республика Чад","Africa","Afrique","África","أفريقيا","非洲","Африка","Low-income countries","Pays à faible revenu","Países de bajos ingresos","بلدان الدخل المنخفض","低收入国家(简写为LIC)","страна с низким уровнем дохода","Middle Africa","Afrique centrale","África central","وسط أفريقيا","中非","Центральная Африка"
"152","40","CL","CHL","Chile","Chili","Chile","شيلي","智利","Чили","the Republic of Chile","la République du Chili","la República de Chile","جمهوريّة شيلي","智利共和国","Республика Чили","Americas","Amériques","Américas","الأمريكتان","美洲","Северная и Южная Америка","High-income countries","Pays à revenu élevé","Países de ingresos altos","","高收入国家","страна с высоким уровнем дохода","South America","Amérique du Sud","América del Sur","أمريكا الجنوبية","南美洲","Южная Америка"
"156","41","CN","CHN","China","Chine","China","الصين","中国","Китай","the People's Republic of China","la République populaire de Chine","la República Popular China","جمهوريّة الصين الشعبيّة","中华人民共和国","Китайская Народная Республика","Asia","Asie","Asia","آسيا","亚洲","Азия","Upper-middle income countries","Pays à revenu intermédiaire de la tranche supérieure","Países de ingresos medianos altos","بلد من الشريحة العليا من البلدان المتوسطة الدخل","中上等收入国家","страна с уровнем дохода выше среднего","Eastern Asia","Asie orientale","Asia oriental","شرقي آسيا","东亚","Восточная Азия"
"162","42","CX","CXR","Christmas Island","Île Christmas","Isla de Navidad","جزر كريسماس","圣诞岛","остров Рождества","Christmas Island","l'Île Christmas","la Isla de Navidad","جزر كريسماس","圣诞岛","остров Рождества","Oceania","Océanie","Oceanía","أوقيانوسيا","大洋洲","Океания","Countries not classified by World Bank","Pays pas classé par la Banque Mondiale","Países no clasificados por el Banco Mundial","","","","Australia and New Zealand","Australie et Nouvelle-Zélande","Australia y Nueva Zelandia","أستراليا ونيوزيلندا","澳大利亚和新西兰","Австралия и Новая Зеландия"
"166","43","CC","CCK","Cocos (Keeling) Islands","Îles des Cocos (Keeling)","Islas Cocos (Keeling)","جزر كوكوس - كيلنغ","可可群岛","Кокосовые (Килинг) острова","the Cocos (Keeling) Islands","les Îles des Cocos (Keeling)","las Islas Cocos (Keeling)","جزر كوكوس - كيلنغ","可可群岛","Кокосовые (Килинг) острова","Oceania","Océanie","Oceanía","أوقيانوسيا","大洋洲","Океания","Countries not classified by World Bank","Pays pas classé par la Banque Mondiale","Países no clasificados por el Banco Mundial","","","","Australia and New Zealand","Australie et Nouvelle-Zélande","Australia y Nueva Zelandia","أستراليا ونيوزيلندا","澳大利亚和新西兰","Австралия и Новая Зеландия"
"170","44","CO","COL","Colombia","Colombie","Colombia","كولومبيا","哥伦比亚","Колумбия","the Republic of Colombia","la République de Colombie","la República de Colombia","جمهوريّة كولومبيا","哥伦比亚共和国","Республика Колумбия","Americas","Amériques","Américas","الأمريكتان","美洲","Северная и Южная Америка","Upper-middle income countries","Pays à revenu intermédiaire de la tranche supérieure","Países de ingresos medianos altos","بلد من الشريحة العليا من البلدان المتوسطة الدخل","中上等收入国家","страна с уровнем дохода выше среднего","South America","Amérique du Sud","América del Sur","أمريكا الجنوبية","南美洲","Южная Америка"
"174","45","KM","COM","Comoros","Comores","Comoras","جزر القمر","科摩罗","Коморские Острова","the Union of the Comoros","l'Union des Comores","la Unión de las Comoras","اتحاد جزر القمر","科摩罗联盟","Союз Коморских Островов","Africa","Afrique","África","أفريقيا","非洲","Африка","Lower-middle income countries","Pays à revenu intermédiaire de la tranche inférieure","Países de ingresos medianos bajos","","","","Eastern Africa","Afrique orientale","África oriental","شرق أفريقيا","东非","Восточная Африка"
"178","46","CG","COG","Congo","Congo","Congo","الكونغو","刚果","Конго","the Republic of the Congo","la République du Congo","la República del Congo","جمهوريّة الكونغو","刚果共和国","Республика Конго","Africa","Afrique","África","أفريقيا","非洲","Африка","Lower-middle income countries","Pays à revenu intermédiaire de la tranche inférieure","Países de ingresos medianos bajos","","","","Middle Africa","Afrique centrale","África central","وسط أفريقيا","中非","Центральная Африка"
"184","47","CK","COK","Cook Islands","Îles Cook","Islas Cook","جزر كوك","库克群岛","Острова Кука","the Cook Islands","les Îles Cook","las Islas Cook","جزر كوك","库克群岛","Острова Кука","Oceania","Océanie","Oceanía","أوقيانوسيا","大洋洲","Океания","Countries not classified by World Bank","Pays pas classé par la Banque Mondiale","Países no clasificados por el Banco Mundial","","","","Polynesia","Polynésie","Polinesia","بولينيزيا","波利尼西亚","Полинезия"
"188","48","CR","CRI","Costa Rica","Costa Rica","Costa Rica","كوستاريكا","哥斯达黎加","Коста-Рика","the Republic of Costa Rica","la République du Costa Rica","la República de Costa Rica","جمهوريّة كوستاريكا","哥斯达黎加共和国","Республика Коста-Рика","Americas","Amériques","Américas","الأمريكتان","美洲","Северная и Южная Америка","Upper-middle income countries","Pays à revenu intermédiaire de la tranche supérieure","Países de ingresos medianos altos","بلد من الشريحة العليا من البلدان المتوسطة الدخل","中上等收入国家","страна с уровнем дохода выше среднего","Central America","Amérique centrale","América central","أمريكا الوسطى","中美洲","Центральная Америка"
"192","49","CU","CUB","Cuba","Cuba","Cuba","كوبا","古巴","Куба","the Republic of Cuba","la République de Cuba","la República de Cuba","جمهوريّة كوبا","古巴共和国","Республика Куба","Americas","Amériques","Américas","الأمريكتان","美洲","Северная и Южная Америка","Upper-middle income countries","Pays à revenu intermédiaire de la tranche supérieure","Países de ingresos medianos altos","بلد من الشريحة العليا من البلدان المتوسطة الدخل","中上等收入国家","страна с уровнем дохода выше среднего","Caribbean","Caraïbes","Caribe","منطقة البحر الكاريبي","加勒比","Карибский бассейн"
"196","50","CY","CYP","Cyprus","Chypre","Chipre","قبرص","塞浦路斯","Кипр","the Republic of Cyprus","la République de Chypre","la República de Chipre","جمهوريّة قبرص","塞浦路斯共和国","Республика Кипр","Asia","Asie","Asia","آسيا","亚洲","Азия","High-income countries","Pays à revenu élevé","Países de ingresos altos","","高收入国家","страна с высоким уровнем дохода","Western Asia","Asie occidentale","Asia occidental","غربي آسيا","西亚","Западная Азия"
"200","51","","CSK","Czechoslovakia [former]","Tchécoslovaquie [ex-]","Checoslovaquia [ex]","","","","Czechoslovakia [former]","Tchécoslovaquie [ex-]","Checoslovaquia [ex]","","","","Europe","Europe","Europa","أوروبا","欧洲","Европа","Countries not classified by World Bank","Pays pas classé par la Banque Mondiale","Países no clasificados por el Banco Mundial","","","","Eastern Europe","Europe orientale","Europa oriental","أوروبا الشرقية","东欧","Восточная Европа"
"031","52","AZ","AZE","Azerbaijan","Azerbaïdjan","Azerbaiyán","أذربيجان","阿塞拜疆","Азербайджан","the Republic of Azerbaijan","la République d'Azerbaïdjan","la República de Azerbaiyán","جمهورية أذربيجان","阿塞拜疆共和国","Азербайджанская Республика","Asia","Asie","Asia","آسيا","亚洲","Азия","Upper-middle income countries","Pays à revenu intermédiaire de la tranche supérieure","Países de ingresos medianos altos","بلد من الشريحة العليا من البلدان المتوسطة الدخل","中上等收入国家","страна с уровнем дохода выше среднего","Western Asia","Asie occidentale","Asia occidental","غربي آسيا","西亚","Западная Азия"
"204","53","BJ","BEN","Benin","Bénin","Benin","بنن","贝宁","Бенин","the Republic of Benin","la République du Bénin","la República de Benin","جمهوريّة بنن","贝宁共和国","Республика Бенин","Africa","Afrique","África","أفريقيا","非洲","Африка","Lower-middle income countries","Pays à revenu intermédiaire de la tranche inférieure","Países de ingresos medianos bajos","","","","Western Africa","Afrique occidentale","África occidental","غرب أفريقيا","西非","Западная Африка"
"208","54","DK","DNK","Denmark","Danemark","Dinamarca","الدانمرك","丹麦","Дания","the Kingdom of Denmark","le Royaume du Danemark","el Reino de Dinamarca","مملكة الدانمرك","丹麦王国","Королевство Дания","Europe","Europe","Europa","أوروبا","欧洲","Европа","High-income countries","Pays à revenu élevé","Países de ingresos altos","","高收入国家","страна с высоким уровнем дохода","Northern Europe","Europe septentrionale","Europa del Norte","أوروبا الشمالية","北欧","Северная Европа"
"212","55","DM","DMA","Dominica","Dominique","Dominica","دومينيكا","多米尼克","Доминика","the Commonwealth of Dominica","le Commonwealth de Dominique","el Commonwealth de Dominica","كمنولث دومينيكا","多米尼克国","Содружество Доминики","Americas","Amériques","Américas","الأمريكتان","美洲","Северная и Южная Америка","Upper-middle income countries","Pays à revenu intermédiaire de la tranche supérieure","Países de ingresos medianos altos","بلد من الشريحة العليا من البلدان المتوسطة الدخل","中上等收入国家","страна с уровнем дохода выше среднего","Caribbean","Caraïbes","Caribe","منطقة البحر الكاريبي","加勒比","Карибский бассейн"
"214","56","DO","DOM","Dominican Republic","République dominicaine","República Dominicana","الجمهوريّة الدومينيكيّة","多米尼加共和国","Доминиканская Республика","the Dominican Republic","la République dominicaine","la República Dominicana","الجمهوريّة الدومينيكيّة","多米尼加共和国","Доминиканская Республика","Americas","Amériques","Américas","الأمريكتان","美洲","Северная и Южная Америка","Upper-middle income countries","Pays à revenu intermédiaire de la tranche supérieure","Países de ingresos medianos altos","بلد من الشريحة العليا من البلدان المتوسطة الدخل","中上等收入国家","страна с уровнем дохода выше среднего","Caribbean","Caraïbes","Caribe","منطقة البحر الكاريبي","加勒比","Карибский бассейн"
"112","57","BY","BLR","Belarus","Bélarus","Belarús","بيلاروس","白俄罗斯","Беларусь","the Republic of Belarus","la République du Bélarus","la República de Belarús","جمهوريّة بيلاروس","白俄罗斯共和国","Республика Беларусь","Europe","Europe","Europa","أوروبا","欧洲","Европа","Upper-middle income countries","Pays à revenu intermédiaire de la tranche supérieure","Países de ingresos medianos altos","بلد من الشريحة العليا من البلدان المتوسطة الدخل","中上等收入国家","страна с уровнем дохода выше среднего","Eastern Europe","Europe orientale","Europa oriental","أوروبا الشرقية","东欧","Восточная Европа"
"218","58","EC","ECU","Ecuador","Équateur","Ecuador","إكوادور","厄瓜多尔","Эквадор","the Republic of Ecuador","la République de l'Équateur","la República del Ecuador","جمهوريّة إكوادور","厄瓜多尔共和国","Республика Эквадор","Americas","Amériques","Américas","الأمريكتان","美洲","Северная и Южная Америка","Upper-middle income countries","Pays à revenu intermédiaire de la tranche supérieure","Países de ingresos medianos altos","بلد من الشريحة العليا من البلدان المتوسطة الدخل","中上等收入国家","страна с уровнем дохода выше среднего","South America","Amérique du Sud","América del Sur","أمريكا الجنوبية","南美洲","Южная Америка"
"818","59","EG","EGY","Egypt","Égypte","Egipto","مصر","埃及","Египет","the Arab Republic of Egypt","la République arabe d'Égypte","la República Árabe de Egipto","جمهوريّة مصر العربيّة","阿拉伯埃及共和国","Арабская Республика Египет","Africa","Afrique","África","أفريقيا","非洲","Африка","Lower-middle income countries","Pays à revenu intermédiaire de la tranche inférieure","Países de ingresos medianos bajos","","","","Northern Africa","Afrique septentrionale","África septentrional","أفريقيا الشمالية","北非","Северная Африка"
"222","60","SV","SLV","El Salvador","El Salvador","El Salvador","السلفادور","萨尔瓦多","Сальвадор","the Republic of El Salvador","la République d'El Salvador","la República de El Salvador","جمهوريّة السلفادور","萨尔瓦多共和国","Республика Эль-Сальвадор","Americas","Amériques","Américas","الأمريكتان","美洲","Северная и Южная Америка","Upper-middle income countries","Pays à revenu intermédiaire de la tranche supérieure","Países de ingresos medianos altos","بلد من الشريحة العليا من البلدان المتوسطة الدخل","中上等收入国家","страна с уровнем дохода выше среднего","Central America","Amérique centrale","América central","أمريكا الوسطى","中美洲","Центральная Америка"
"226","61","GQ","GNQ","Equatorial Guinea","Guinée équatoriale","Guinea Ecuatorial","غينيا الاستوائيّة","赤道几内亚","Экваториальная Гвинея","the Republic of Equatorial Guinea","la République de Guinée équatoriale","la República de Guinea Ecuatorial","جمهوريّة غينيا الاستوائيّة","赤道几内亚共和国","Республика Экваториальная Гвинея","Africa","Afrique","África","أفريقيا","非洲","Африка","Upper-middle income countries","Pays à revenu intermédiaire de la tranche supérieure","Países de ingresos medianos altos","بلد من الشريحة العليا من البلدان المتوسطة الدخل","中上等收入国家","страна с уровнем дохода выше среднего","Middle Africa","Afrique centrale","África central","وسط أفريقيا","中非","Центральная Африка"
"230","62","","","Ethiopia PDR [former]","Éthiopie RDP [ex-]","Etiopía RDP [ex]","","","","","","","","","","Africa","Afrique","África","أفريقيا","非洲","Африка","Countries not classified by World Bank","Pays pas classé par la Banque Mondiale","Países no clasificados por el Banco Mundial","","","","Eastern Africa","Afrique orientale","África oriental","شرق أفريقيا","东非","Восточная Африка"
"233","63","EE","EST","Estonia","Estonie","Estonia","إستونيا","爱沙尼亚","Эстония","the Republic of Estonia","la République d'Estonie","la República de Estonia","جمهوريّة إستونيا","爱沙尼亚共和国","Эстонская Республика","Europe","Europe","Europa","أوروبا","欧洲","Европа","High-income countries","Pays à revenu élevé","Países de ingresos altos","","高收入国家","страна с высоким уровнем дохода","Northern Europe","Europe septentrionale","Europa del Norte","أوروبا الشمالية","北欧","Северная Европа"
"234","64","FO","FRO","Faroe Islands","Îles Féroé","Islas Feroe","جزر فاراو","法罗群岛","Фарерские острова","the Faroe Islands","les Îles Féroé","las Islas Feroe","جزر فاراو","法罗群岛","Фарерские острова","Europe","Europe","Europa","أوروبا","欧洲","Европа","High-income countries","Pays à revenu élevé","Países de ingresos altos","","高收入国家","страна с высоким уровнем дохода","Northern Europe","Europe septentrionale","Europa del Norte","أوروبا الشمالية","北欧","Северная Европа"
"238","65","FK","FLK","Falkland Islands (Malvinas)","Îles Falkland (Malvinas)","Islas Malvinas (Falkland Islands)","جزر فوكلاند - مالفيناس","福克兰群岛（马尔维纳斯）","Фолклендские (Мальвинские) острова","the Falkland Islands (Malvinas)","les Îles Falkland (Malvinas)","las Islas Malvinas (Falkland Islands)","جزر فوكلاند - مالفيناس","福克兰群岛（马尔维纳斯）","Фолклендские (Мальвинские) острова","Americas","Amériques","Américas","الأمريكتان","美洲","Северная и Южная Америка","Countries not classified by World Bank","Pays pas classé par la Banque Mondiale","Países no clasificados por el Banco Mundial","","","","South America","Amérique du Sud","América del Sur","أمريكا الجنوبية","南美洲","Южная Америка"
"242","66","FJ","FJI","Fiji","Fidji","Fiji","فيجي","斐济","Фиджи","the Republic of Fiji","la République des Fidji","la República de Fiji","جمهوريّة فيجي","斐济共和国","Республика Фиджи","Oceania","Océanie","Oceanía","أوقيانوسيا","大洋洲","Океания","Upper-middle income countries","Pays à revenu intermédiaire de la tranche supérieure","Países de ingresos medianos altos","بلد من الشريحة العليا من البلدان المتوسطة الدخل","中上等收入国家","страна с уровнем дохода выше среднего","Melanesia","Mélanésie","Melanesia","ميلانيزيا","美拉尼西亚","Меланезия"
"246","67","FI","FIN","Finland","Finlande","Finlandia","فنلندا","芬兰","Финляндия","the Republic of Finland","la République de Finlande","la República de Finlandia","جمهوريّة فنلندا","芬兰共和国","Финляндская Республика","Europe","Europe","Europa","أوروبا","欧洲","Европа","High-income countries","Pays à revenu élevé","Países de ingresos altos","","高收入国家","страна с высоким уровнем дохода","Northern Europe","Europe septentrionale","Europa del Norte","أوروبا الشمالية","北欧","Северная Европа"
"250","68","FR","FRA","France","France","Francia","فرنسا","法国","Франция","the French Republic","la République française","la República Francesa","الجمهوريّة الفرنسية","法兰西共和国","Французская Республика","Europe","Europe","Europa","أوروبا","欧洲","Европа","High-income countries","Pays à revenu élevé","Países de ingresos altos","","高收入国家","страна с высоким уровнем дохода","Western Europe","Europe occidentale","Europa occidental","أوروبا الغربية","西欧","Западная Европа"
"254","69","GF","GUF","French Guiana","Guyane française","Guayana Francesa","غيانا الفرنسيّة","法属圭亚那","Французская Гвиана","French Guiana","la Guyane française","la Guayana Francesa","غيانا الفرنسيّة","法属圭亚那","Французская Гвиана","Americas","Amériques","Américas","الأمريكتان","美洲","Северная и Южная Америка","Countries not classified by World Bank","Pays pas classé par la Banque Mondiale","Países no clasificados por el Banco Mundial","","","","South America","Amérique du Sud","América del Sur","أمريكا الجنوبية","南美洲","Южная Америка"
"258","70","PF","PYF","French Polynesia","Polynésie française","Polinesia Francesa","بولينيزيا الفرنسية","法属波利尼西亚","Французская Полинезия","French Polynesia","la Polynésie française","la Polinesia Francesa","بولينيزيا الفرنسية","法属波利尼西亚","Французская Полинезия","Oceania","Océanie","Oceanía","أوقيانوسيا","大洋洲","Океания","High-income countries","Pays à revenu élevé","Países de ingresos altos","","高收入国家","страна с высоким уровнем дохода","Polynesia","Polynésie","Polinesia","بولينيزيا","波利尼西亚","Полинезия"
"260","71","TF","ATF","French Southern Territories","Terres australes françaises","Tierras Australes Francesas","الأراضي الفرنسية الجنوبية","法属南部领地","Французские южные территории","the French Southern Territories","les Terres australes françaises","las Tierras Australes Francesas","الأراضي الفرنسية الجنوبية","法属南部领地","Французские южные территории","Africa","Afrique","África","أفريقيا","非洲","Африка","Countries not classified by World Bank","Pays pas classé par la Banque Mondiale","Países no clasificados por el Banco Mundial","","","","Eastern Africa","Afrique orientale","África oriental","شرق أفريقيا","东非","Восточная Африка"
"262","72","DJ","DJI","Djibouti","Djibouti","Djibouti","جيبوتي","吉布提","Джибути","the Republic of Djibouti","la République de Djibouti","la República de Djibouti","جمهوريّة جيبوتي","吉布提共和国","Республика Джибути","Africa","Afrique","África","أفريقيا","非洲","Африка","Lower-middle income countries","Pays à revenu intermédiaire de la tranche inférieure","Países de ingresos medianos bajos","","","","Eastern Africa","Afrique orientale","África oriental","شرق أفريقيا","东非","Восточная Африка"
"268","73","GE","GEO","Georgia","Géorgie","Georgia","جورجيا","格鲁吉亚","Грузия","Georgia","la Géorgie","Georgia","جورجيا","格鲁吉亚","Грузия","Asia","Asie","Asia","آسيا","亚洲","Азия","Upper-middle income countries","Pays à revenu intermédiaire de la tranche supérieure","Países de ingresos medianos altos","بلد من الشريحة العليا من البلدان المتوسطة الدخل","中上等收入国家","страна с уровнем дохода выше среднего","Western Asia","Asie occidentale","Asia occidental","غربي آسيا","西亚","Западная Азия"
"266","74","GA","GAB","Gabon","Gabon","Gabón","غابون","加蓬","Габон","the Gabonese Republic","la République gabonaise","la República Gabonesa","جمهورية الغابون","加蓬共和国","Габонская Республика","Africa","Afrique","África","أفريقيا","非洲","Африка","Upper-middle income countries","Pays à revenu intermédiaire de la tranche supérieure","Países de ingresos medianos altos","بلد من الشريحة العليا من البلدان المتوسطة الدخل","中上等收入国家","страна с уровнем дохода выше среднего","Middle Africa","Afrique centrale","África central","وسط أفريقيا","中非","Центральная Африка"
"270","75","GM","GMB","Gambia","Gambie","Gambia","غامبيا","冈比亚","Гамбия","the Republic of the Gambia","la République de Gambie","la República de Gambia","جمهوريّة غامبيا","冈比亚共和国","Республика Гамбия","Africa","Afrique","África","أفريقيا","非洲","Африка","Low-income countries","Pays à faible revenu","Países de bajos ingresos","بلدان الدخل المنخفض","低收入国家(简写为LIC)","страна с низким уровнем дохода","Western Africa","Afrique occidentale","África occidental","غرب أفريقيا","西非","Западная Африка"
"274","76","","","Gaza Strip  [former]","bande de Gaza  [ex-]","Franja de Gaza [ex]","قطاع غزة [السابق]","加沙地带 [бывший]","сектор Газа [бывший]","the Gaza Strip  [former]","la bande de Gaza  [ex-]","la Franja de Gaza  [ex]","قطاع غزة [السابق]","加沙地带 [бывший]","сектор Газа [бывший]","","","","","","","Countries not classified by World Bank","Pays pas classé par la Banque Mondiale","Países no clasificados por el Banco Mundial","","","","","","","","",""
"278","77","","","German Democratic Republic [former]","République démocratique allemande [ex-]","República Democrática Alemana [ex]","","","","German Democratic Republic [former]","République démocratique allemande [ex-]","República Democrática Alemana [ex]","","","","Europe","Europe","Europa","أوروبا","欧洲","Европа","Countries not classified by World Bank","Pays pas classé par la Banque Mondiale","Países no clasificados por el Banco Mundial","","","","Western Europe","Europe occidentale","Europa occidental","أوروبا الغربية","西欧","Западная Европа"
"280","78","","","Germany, Fed. Rep. of [former]","Allemagne, Rép. féd. d' [ex-]","Alemania, Rep. Fed. de [ex]","","","","Germany, Fed. Rep. of [former]","Allemagne, Rép. féd. d' [ex-]","Alemania, Rep. Fed. de [ex]","","","","Europe","Europe","Europa","أوروبا","欧洲","Европа","Countries not classified by World Bank","Pays pas classé par la Banque Mondiale","Países no clasificados por el Banco Mundial","","","","Western Europe","Europe occidentale","Europa occidental","أوروبا الغربية","西欧","Западная Европа"
"276","79","DE","DEU","Germany","Allemagne","Alemania","ألمانيا","德国","Германия","the Federal Republic of Germany","la République fédérale d'Allemagne","la República Federal de Alemania","جمهوريّة ألمانيا الاتحادية","德意志联邦共和国","Федеративная Республика Германия","Europe","Europe","Europa","أوروبا","欧洲","Европа","High-income countries","Pays à revenu élevé","Países de ingresos altos","","高收入国家","страна с высоким уровнем дохода","Western Europe","Europe occidentale","Europa occidental","أوروبا الغربية","西欧","Западная Европа"
"070","80","BA","BIH","Bosnia and Herzegovina","Bosnie-Herzégovine","Bosnia y Herzegovina","البوسنة والهرسك","波斯尼亚和黑塞哥维那","Босния и Герцеговина","Bosnia and Herzegovina","la Bosnie-Herzégovine","Bosnia y Herzegovina","البوسنة والهرسك","波斯尼亚和黑塞哥维那","Босния и Герцеговина","Europe","Europe","Europa","أوروبا","欧洲","Европа","Upper-middle income countries","Pays à revenu intermédiaire de la tranche supérieure","Países de ingresos medianos altos","بلد من الشريحة العليا من البلدان المتوسطة الدخل","中上等收入国家","страна с уровнем дохода выше среднего","Southern Europe","Europe méridionale","Europa meridional","أوروبا الجنوبية","南欧","Южная Европа"
"288","81","GH","GHA","Ghana","Ghana","Ghana","غانا","加纳","Гана","the Republic of Ghana","la République du Ghana","la República de Ghana","جمهوريّة غانا","加纳共和国","Республика Гана","Africa","Afrique","África","أفريقيا","非洲","Африка","Lower-middle income countries","Pays à revenu intermédiaire de la tranche inférieure","Países de ingresos medianos bajos","","","","Western Africa","Afrique occidentale","África occidental","غرب أفريقيا","西非","Западная Африка"
"292","82","GI","GIB","Gibraltar","Gibraltar","Gibraltar","جبل طارق","直布罗陀","Гибралтар","Gibraltar","Gibraltar","Gibraltar","جبل طارق","直布罗陀","Гибралтар","Europe","Europe","Europa","أوروبا","欧洲","Европа","High-income countries","Pays à revenu élevé","Países de ingresos altos","","高收入国家","страна с высоким уровнем дохода","Southern Europe","Europe méridionale","Europa meridional","أوروبا الجنوبية","南欧","Южная Европа"
"296","83","KI","KIR","Kiribati","Kiribati","Kiribati","كيريباس","基里巴斯","Кирибати","the Republic of Kiribati","la République de Kiribati","la República de Kiribati","جمهوريّة كيريباس","基里巴斯共和国","Республика Кирибати","Oceania","Océanie","Oceanía","أوقيانوسيا","大洋洲","Океания","Lower-middle income countries","Pays à revenu intermédiaire de la tranche inférieure","Países de ingresos medianos bajos","","","","Micronesia","Micronésie","Micronesia","ميكرونيزيا","密克罗尼西亚","Микронезия"
"300","84","GR","GRC","Greece","Grèce","Grecia","اليونان","希腊","Греция","the Hellenic Republic","la République hellénique","la República Helénica","الجمهورية الهيلينية","希腊共和国","Греческая Республика","Europe","Europe","Europa","أوروبا","欧洲","Европа","High-income countries","Pays à revenu élevé","Países de ingresos altos","","高收入国家","страна с высоким уровнем дохода","Southern Europe","Europe méridionale","Europa meridional","أوروبا الجنوبية","南欧","Южная Европа"
"304","85","GL","GRL","Greenland","Groenland","Groenlandia","غرينلاند","格陵兰","Гренландия","Greenland","Groenland","Groenlandia","غرينلاند","格陵兰","Гренландия","Americas","Amériques","Américas","الأمريكتان","美洲","Северная и Южная Америка","High-income countries","Pays à revenu élevé","Países de ingresos altos","","高收入国家","страна с высоким уровнем дохода","Northern America","Amérique du Nord","América del Norte","أمريكا الشمالية","北美","Северная Америка"
"308","86","GD","GRD","Grenada","Grenade","Granada","غرينادا","格林纳达","Гренада","Grenada","la Grenade","Granada","غرينادا","格林纳达","Гренада","Americas","Amériques","Américas","الأمريكتان","美洲","Северная и Южная Америка","Upper-middle income countries","Pays à revenu intermédiaire de la tranche supérieure","Países de ingresos medianos altos","بلد من الشريحة العليا من البلدان المتوسطة الدخل","中上等收入国家","страна с уровнем дохода выше среднего","Caribbean","Caraïbes","Caribe","منطقة البحر الكاريبي","加勒比","Карибский бассейн"
"312","87","GP","GLP","Guadeloupe","Guadeloupe","Guadalupe","غوادلوب","瓜德罗普","Гваделупа","Guadeloupe","la Guadeloupe","Guadalupe","غوادلوب","瓜德罗普","Гваделупа","Americas","Amériques","Américas","الأمريكتان","美洲","Северная и Южная Америка","Countries not classified by World Bank","Pays pas classé par la Banque Mondiale","Países no clasificados por el Banco Mundial","","","","Caribbean","Caraïbes","Caribe","منطقة البحر الكاريبي","加勒比","Карибский бассейн"
"316","88","GU","GUM","Guam","Guam","Guam","غوام","关岛","Гуам","Guam","Guam","Guam","غوام","关岛","Гуам","Oceania","Océanie","Oceanía","أوقيانوسيا","大洋洲","Океания","High-income countries","Pays à revenu élevé","Países de ingresos altos","","高收入国家","страна с высоким уровнем дохода","Micronesia","Micronésie","Micronesia","ميكرونيزيا","密克罗尼西亚","Микронезия"
"320","89","GT","GTM","Guatemala","Guatemala","Guatemala","غواتيمالا","危地马拉","Гватемала","the Republic of Guatemala","la République du Guatemala","la República de Guatemala","جمهوريّة غواتيمالا","危地马拉共和国","Республика Гватемала","Americas","Amériques","Américas","الأمريكتان","美洲","Северная и Южная Америка","Upper-middle income countries","Pays à revenu intermédiaire de la tranche supérieure","Países de ingresos medianos altos","بلد من الشريحة العليا من البلدان المتوسطة الدخل","中上等收入国家","страна с уровнем дохода выше среднего","Central America","Amérique centrale","América central","أمريكا الوسطى","中美洲","Центральная Америка"
"324","90","GN","GIN","Guinea","Guinée","Guinea","غينيا","几内亚","Гвинея","the Republic of Guinea","la République de Guinée","la República de Guinea","جمهوريّة غينيا","几内亚共和国","Гвинейская Республика","Africa","Afrique","África","أفريقيا","非洲","Африка","Lower-middle income countries","Pays à revenu intermédiaire de la tranche inférieure","Países de ingresos medianos bajos","","","","Western Africa","Afrique occidentale","África occidental","غرب أفريقيا","西非","Западная Африка"
"328","91","GY","GUY","Guyana","Guyana","Guyana","غيانا","圭亚那","Гайана","the Co-operative Republic of Guyana","la République coopérative du Guyana","la República Cooperativa de Guyana","جمهوريّة غيانا التعاونيّة","圭亚那合作共和国","Кооперативная Республика Гайана","Americas","Amériques","Américas","الأمريكتان","美洲","Северная и Южная Америка","High-income countries","Pays à revenu élevé","Países de ingresos altos","","高收入国家","страна с высоким уровнем дохода","South America","Amérique du Sud","América del Sur","أمريكا الجنوبية","南美洲","Южная Америка"
"334","92","HM","HMD","Heard Island and McDonald Islands","Île Heard et Îles McDonald","Isla Heard e Islas McDonald","جزيرة هيرد وجزر ماكدونالد","赫德岛和麦克唐纳岛","остров Херд и острова Макдональд","Heard Island and McDonald Islands","l'Île Heard et les Îles McDonald","la Isla Heard y las Islas McDonald","جزيرة هيرد وجزر ماكدونالد","赫德岛和麦克唐纳岛","остров Херд и острова Макдональд","Oceania","Océanie","Oceanía","أوقيانوسيا","大洋洲","Океания","Countries not classified by World Bank","Pays pas classé par la Banque Mondiale","Países no clasificados por el Banco Mundial","","","","Australia and New Zealand","Australie et Nouvelle-Zélande","Australia y Nueva Zelandia","أستراليا ونيوزيلندا","澳大利亚和新西兰","Австралия и Новая Зеландия"
"332","93","HT","HTI","Haiti","Haïti","Haití","هايتي","海地","Гаити","the Republic of Haiti","la République d'Haïti","la República de Haití","جمهوريّة هايتي","海地共和国","Республика Гаити","Americas","Amériques","Américas","الأمريكتان","美洲","Северная и Южная Америка","Lower-middle income countries","Pays à revenu intermédiaire de la tranche inférieure","Países de ingresos medianos bajos","","","","Caribbean","Caraïbes","Caribe","منطقة البحر الكاريبي","加勒比","Карибский бассейн"
"336","94","VA","VAT","Holy See","Saint-Siège","Santa Sede","الكرسي الرسولي","罗马教廷","Святой Престол","the Holy See","le Saint-Siège","la Santa Sede","الكرسي الرسولي","罗马教廷","Святой Престол","Europe","Europe","Europa","أوروبا","欧洲","Европа","Countries not classified by World Bank","Pays pas classé par la Banque Mondiale","Países no clasificados por el Banco Mundial","","","","Southern Europe","Europe méridionale","Europa meridional","أوروبا الجنوبية","南欧","Южная Европа"
"340","95","HN","HND","Honduras","Honduras","Honduras","هندوراس","洪都拉斯","Гондурас","the Republic of Honduras","la République du Honduras","la República de Honduras","جمهوريّة هندوراس","洪都拉斯共和国","Республика Гондурас","Americas","Amériques","Américas","الأمريكتان","美洲","Северная и Южная Америка","Lower-middle income countries","Pays à revenu intermédiaire de la tranche inférieure","Países de ingresos medianos bajos","","","","Central America","Amérique centrale","América central","أمريكا الوسطى","中美洲","Центральная Америка"
"344","96","HK","HKG","China, Hong Kong SAR","Chine - RAS de Hong-Kong","China, RAE de Hong Kong","الصين - هونغ كونغ منطقة إداريّة خاصة","中国香港特区","Китай, Специальный административный район Гонконг","China, Hong Kong Special Administrative Region","Chine - Région administrative spéciale de Hong-Kong","China, Región Administrativa Especial de Hong Kong","الصين - هونغ كونغ منطقة إداريّة خاصة","中国香港特别行政区","Китай, Специальный административный район Гонконг","Asia","Asie","Asia","آسيا","亚洲","Азия","High-income countries","Pays à revenu élevé","Países de ingresos altos","","高收入国家","страна с высоким уровнем дохода","Eastern Asia","Asie orientale","Asia oriental","شرقي آسيا","东亚","Восточная Азия"
"348","97","HU","HUN","Hungary","Hongrie","Hungría","هنغاريا","匈牙利","Венгрия","Hungary","la Hongrie","Hungría","هنغاريا","匈牙利","Венгрия","Europe","Europe","Europa","أوروبا","欧洲","Европа","High-income countries","Pays à revenu élevé","Países de ingresos altos","","高收入国家","страна с высоким уровнем дохода","Eastern Europe","Europe orientale","Europa oriental","أوروبا الشرقية","东欧","Восточная Европа"
"191","98","HR","HRV","Croatia","Croatie","Croacia","كرواتيا","克罗地亚","Хорватия","the Republic of Croatia","la République de Croatie","la República de Croacia","جمهوريّة كرواتيا","克罗地亚共和国","Республика Хорватия","Europe","Europe","Europa","أوروبا","欧洲","Европа","High-income countries","Pays à revenu élevé","Países de ingresos altos","","高收入国家","страна с высоким уровнем дохода","Southern Europe","Europe méridionale","Europa meridional","أوروبا الجنوبية","南欧","Южная Европа"
"352","99","IS","ISL","Iceland","Islande","Islandia","آيسلندا","冰岛","Исландия","Iceland","l'Islande","Islandia","آيسلندا","冰岛","Исландия","Europe","Europe","Europa","أوروبا","欧洲","Европа","High-income countries","Pays à revenu élevé","Países de ingresos altos","","高收入国家","страна с высоким уровнем дохода","Northern Europe","Europe septentrionale","Europa del Norte","أوروبا الشمالية","北欧","Северная Европа"
"356","100","IN","IND","India","Inde","India","الهند","印度","Индия","the Republic of India","la République de l'Inde","la República de la India","جمهوريّة الهند","印度共和国","Республика Индия","Asia","Asie","Asia","آسيا","亚洲","Азия","Lower-middle income countries","Pays à revenu intermédiaire de la tranche inférieure","Países de ingresos medianos bajos","","","","Southern Asia","Asie méridionale","Asia meridional","جنوب آسيا","南亚","Южная Азия"
"360","101","ID","IDN","Indonesia","Indonésie","Indonesia","إندونيسيا","印度尼西亚","Индонезия","the Republic of Indonesia","la République d'Indonésie","la República de Indonesia","جمهوريّة إندونيسيا","印度尼西亚共和国","Республика Индонезия","Asia","Asie","Asia","آسيا","亚洲","Азия","Upper-middle income countries","Pays à revenu intermédiaire de la tranche supérieure","Países de ingresos medianos altos","بلد من الشريحة العليا من البلدان المتوسطة الدخل","中上等收入国家","страна с уровнем дохода выше среднего","South-Eastern Asia","Asie du Sud-Est","Asia sudoriental","جنوب شرقي آسيا","东南亚","Юго-Восточная Азия"
"364","102","IR","IRN","Iran (Islamic Republic of)","Iran (République islamique d')","Irán (República Islámica del)","إيران (جمهوريّة - الإسلامية)","伊朗伊斯兰共和国","Иран (Исламская Республика)","the Islamic Republic of Iran","la République islamique d'Iran","la República Islámica del Irán","جمهوريّة إيران الإسلامية","伊朗伊斯兰共和国","Исламская Республика Иран","Asia","Asie","Asia","آسيا","亚洲","Азия","Upper-middle income countries","Pays à revenu intermédiaire de la tranche supérieure","Países de ingresos medianos altos","بلد من الشريحة العليا من البلدان المتوسطة الدخل","中上等收入国家","страна с уровнем дохода выше среднего","Southern Asia","Asie méridionale","Asia meridional","جنوب آسيا","南亚","Южная Азия"
"368","103","IQ","IRQ","Iraq","Iraq","Iraq","العراق","伊拉克","Ирак","the Republic of Iraq","la République d'Iraq","la República del Iraq","جمهوريّة العراق","伊拉克共和国","Республика Ирак","Asia","Asie","Asia","آسيا","亚洲","Азия","Upper-middle income countries","Pays à revenu intermédiaire de la tranche supérieure","Países de ingresos medianos altos","بلد من الشريحة العليا من البلدان المتوسطة الدخل","中上等收入国家","страна с уровнем дохода выше среднего","Western Asia","Asie occidentale","Asia occidental","غربي آسيا","西亚","Западная Азия"
"372","104","IE","IRL","Ireland","Irlande","Irlanda","أيرلندا","爱尔兰","Ирландия","Ireland","l'Irlande","Irlanda","أيرلندا","爱尔兰","Ирландия","Europe","Europe","Europa","أوروبا","欧洲","Европа","High-income countries","Pays à revenu élevé","Países de ingresos altos","","高收入国家","страна с высоким уровнем дохода","Northern Europe","Europe septentrionale","Europa del Norte","أوروبا الشمالية","北欧","Северная Европа"
"376","105","IL","ISR","Israel","Israël","Israel","إسرائيل","以色列","Израиль","the State of Israel","l'État d'Israël","el Estado de Israel","دولة إسرائيل","以色列国","Государство Израиль","Asia","Asie","Asia","آسيا","亚洲","Азия","High-income countries","Pays à revenu élevé","Países de ingresos altos","","高收入国家","страна с высоким уровнем дохода","Western Asia","Asie occidentale","Asia occidental","غربي آسيا","西亚","Западная Азия"
"380","106","IT","ITA","Italy","Italie","Italia","إيطاليا","意大利","Италия","the Republic of Italy","la République italienne","la República Italiana","جمهورية إيطاليا","意大利共和国","Итальянская Республика","Europe","Europe","Europa","أوروبا","欧洲","Европа","High-income countries","Pays à revenu élevé","Países de ingresos altos","","高收入国家","страна с высоким уровнем дохода","Southern Europe","Europe méridionale","Europa meridional","أوروبا الجنوبية","南欧","Южная Европа"
"384","107","CI","CIV","Côte d'Ivoire","Côte d'Ivoire","Côte d'Ivoire","كوت ديفوار","科特迪瓦","Кот-д'Ивуар","the Republic of Côte d'Ivoire","la République de Côte d'Ivoire","la República de Côte d'Ivoire","جمهوريّة كوت ديفوار","科特迪瓦共和国","Республика Кот-д'Ивуар","Africa","Afrique","África","أفريقيا","非洲","Африка","Lower-middle income countries","Pays à revenu intermédiaire de la tranche inférieure","Países de ingresos medianos bajos","","","","Western Africa","Afrique occidentale","África occidental","غرب أفريقيا","西非","Западная Африка"
"398","108","KZ","KAZ","Kazakhstan","Kazakhstan","Kazajstán","كازاخستان","哈萨克斯坦","Казахстан","the Republic of Kazakhstan","la République du Kazakhstan","la República de Kazajstán","جمهوريّة كازاخستان","哈萨克斯坦共和国","Республика Казахстан","Asia","Asie","Asia","آسيا","亚洲","Азия","Upper-middle income countries","Pays à revenu intermédiaire de la tranche supérieure","Países de ingresos medianos altos","بلد من الشريحة العليا من البلدان المتوسطة الدخل","中上等收入国家","страна с уровнем дохода выше среднего","Central Asia","Asie centrale","Asia central","آسيا الوسطى","中亚","Центральная Азия"
"388","109","JM","JAM","Jamaica","Jamaïque","Jamaica","جامايكا","牙买加","Ямайка","Jamaica","la Jamaïque","Jamaica","جامايكا","牙买加","Ямайка","Americas","Amériques","Américas","الأمريكتان","美洲","Северная и Южная Америка","Upper-middle income countries","Pays à revenu intermédiaire de la tranche supérieure","Países de ingresos medianos altos","بلد من الشريحة العليا من البلدان المتوسطة الدخل","中上等收入国家","страна с уровнем дохода выше среднего","Caribbean","Caraïbes","Caribe","منطقة البحر الكاريبي","加勒比","Карибский бассейн"
"392","110","JP","JPN","Japan","Japon","Japón","اليابان","日本","Япония","Japan","le Japon","el Japón","اليابان","日本国","Япония","Asia","Asie","Asia","آسيا","亚洲","Азия","High-income countries","Pays à revenu élevé","Países de ingresos altos","","高收入国家","страна с высоким уровнем дохода","Eastern Asia","Asie orientale","Asia oriental","شرقي آسيا","东亚","Восточная Азия"
"396","111","JT","JTN","Johnston Island [former]","Île Johnston [ex-]","Isla de Johnston [ex]","جزيرة جونستون [السابق]","约翰斯顿岛 [以前的]","остров Джонстон [бывший]","Johnston Island [former]","l'Île Johnston [ex-]","la Isla de Johnston [ex]","جزيرة جونستون [السابق]","约翰斯顿岛 [以前的]","остров Джонстон [бывший]","","","","","","","","","","","","","","","","","",""
"400","112","JO","JOR","Jordan","Jordanie","Jordania","الأردن","约旦","Иордания","the Hashemite Kingdom of Jordan","le Royaume hachémite de Jordanie","el Reino Hachemita de Jordania","المملكة الأردنيّة الهاشميّة","约旦哈希姆王国","Иорданское Хашимитское Королевство","Asia","Asie","Asia","آسيا","亚洲","Азия","Lower-middle income countries","Pays à revenu intermédiaire de la tranche inférieure","Países de ingresos medianos bajos","","","","Western Asia","Asie occidentale","Asia occidental","غربي آسيا","西亚","Западная Азия"
"417","113","KG","KGZ","Kyrgyzstan","Kirghizistan","Kirguistán","قيرغيزستان","吉尔吉斯斯坦","Кыргызстан","the Kyrgyz Republic","la République kirghize","la República Kirguisa","جمهورية قيرغيزستان","吉尔吉斯共和国","Кыргызская Республика","Asia","Asie","Asia","آسيا","亚洲","Азия","Lower-middle income countries","Pays à revenu intermédiaire de la tranche inférieure","Países de ingresos medianos bajos","","","","Central Asia","Asie centrale","Asia central","آسيا الوسطى","中亚","Центральная Азия"
"404","114","KE","KEN","Kenya","Kenya","Kenya","كينيا","肯尼亚","Кения","the Republic of Kenya","la République du Kenya","la República de Kenya","جمهوريّة كينيا","肯尼亚共和国","Республика Кения","Africa","Afrique","África","أفريقيا","非洲","Африка","Lower-middle income countries","Pays à revenu intermédiaire de la tranche inférieure","Países de ingresos medianos bajos","","","","Eastern Africa","Afrique orientale","África oriental","شرق أفريقيا","东非","Восточная Африка"
"116","115","KH","KHM","Cambodia","Cambodge","Camboya","كمبوديا","柬埔寨","Камбоджа","the Kingdom of Cambodia","le Royaume du Cambodge","el Reino de Camboya","مملكة كمبوديا","柬埔寨王国","Королевство Камбоджа","Asia","Asie","Asia","آسيا","亚洲","Азия","Lower-middle income countries","Pays à revenu intermédiaire de la tranche inférieure","Países de ingresos medianos bajos","","","","South-Eastern Asia","Asie du Sud-Est","Asia sudoriental","جنوب شرقي آسيا","东南亚","Юго-Восточная Азия"
"408","116","KP","PRK","Democratic People's Republic of Korea","République populaire démocratique de Corée","República Popular Democrática de Corea","جمهوريّة كوريا الشعبيّة الديمقراطية","朝鲜民主主义人民共和国","Корейская Народно-Демократическая Республика","the Democratic People's Republic of Korea","la République populaire démocratique de Corée","la República Popular Democrática de Corea","جمهوريّة كوريا الشعبيّة الديمقراطية","朝鲜民主主义人民共和国","Корейская Народно-Демократическая Республика","Asia","Asie","Asia","آسيا","亚洲","Азия","Low-income countries","Pays à faible revenu","Países de bajos ingresos","بلدان الدخل المنخفض","低收入国家(简写为LIC)","страна с низким уровнем дохода","Eastern Asia","Asie orientale","Asia oriental","شرقي آسيا","东亚","Восточная Азия"
"410","117","KR","KOR","Republic of Korea","République de Corée","República de Corea","جمهوريّة كوريا","大韩民国","Республика Корея","the Republic of Korea","la République de Corée","la República de Corea","جمهوريّة كوريا","大韩民国","Республика Корея","Asia","Asie","Asia","آسيا","亚洲","Азия","High-income countries","Pays à revenu élevé","Países de ingresos altos","","高收入国家","страна с высоким уровнем дохода","Eastern Asia","Asie orientale","Asia oriental","شرقي آسيا","东亚","Восточная Азия"
"414","118","KW","KWT","Kuwait","Koweït","Kuwait","الكويت","科威特","Кувейт","the State of Kuwait","l'État du Koweït","el Estado de Kuwait","دولة الكويت","科威特国","Государство Кувейт","Asia","Asie","Asia","آسيا","亚洲","Азия","High-income countries","Pays à revenu élevé","Países de ingresos altos","","高收入国家","страна с высоким уровнем дохода","Western Asia","Asie occidentale","Asia occidental","غربي آسيا","西亚","Западная Азия"
"428","119","LV","LVA","Latvia","Lettonie","Letonia","لاتفيا","拉脱维亚","Латвия","the Republic of Latvia","la République de Lettonie","la República de Letonia","جمهوريّة لاتفيا","拉脱维亚共和国","Латвийская Республика","Europe","Europe","Europa","أوروبا","欧洲","Европа","High-income countries","Pays à revenu élevé","Países de ingresos altos","","高收入国家","страна с высоким уровнем дохода","Northern Europe","Europe septentrionale","Europa del Norte","أوروبا الشمالية","北欧","Северная Европа"
"418","120","LA","LAO","Lao People's Democratic Republic","République démocratique populaire lao","República Democrática Popular Lao","جمهوريّة لاو الديمقراطية الشعبية","老挝人民民主共和国","Лаосская Народно-Демократическая Республика","the Lao People's Democratic Republic","la République démocratique populaire lao","la República Democrática Popular Lao","جمهوريّة لاو الديمقراطية الشعبية","老挝人民民主共和国","Лаосская Народно-Демократическая Республика","Asia","Asie","Asia","آسيا","亚洲","Азия","Lower-middle income countries","Pays à revenu intermédiaire de la tranche inférieure","Países de ingresos medianos bajos","","","","South-Eastern Asia","Asie du Sud-Est","Asia sudoriental","جنوب شرقي آسيا","东南亚","Юго-Восточная Азия"
"422","121","LB","LBN","Lebanon","Liban","Líbano","لبنان","黎巴嫩","Ливан","the Lebanese Republic","la République libanaise","la República Libanesa","الجمهوريّة اللبنانيّة","黎巴嫩共和国","Ливанская Республика","Asia","Asie","Asia","آسيا","亚洲","Азия","Lower-middle income countries","Pays à revenu intermédiaire de la tranche inférieure","Países de ingresos medianos bajos","","","","Western Asia","Asie occidentale","Asia occidental","غربي آسيا","西亚","Западная Азия"
"426","122","LS","LSO","Lesotho","Lesotho","Lesotho","ليسوتو","莱索托","Лесото","the Kingdom of Lesotho","le Royaume du Lesotho","el Reino de Lesotho","مملكة ليسوتو","莱索托王国","Королевство Лесото","Africa","Afrique","África","أفريقيا","非洲","Африка","Lower-middle income countries","Pays à revenu intermédiaire de la tranche inférieure","Países de ingresos medianos bajos","","","","Southern Africa","Afrique australe","África austral","الجنوب الأفريقي","南部非洲","Южная часть Африки"
"430","123","LR","LBR","Liberia","Libéria","Liberia","ليبريا","利比里亚","Либерия","the Republic of Liberia","la République du Libéria","la República de Liberia","جمهوريّة ليبريا","利比里亚共和国","Республика Либерия","Africa","Afrique","África","أفريقيا","非洲","Африка","Low-income countries","Pays à faible revenu","Países de bajos ingresos","بلدان الدخل المنخفض","低收入国家(简写为LIC)","страна с низким уровнем дохода","Western Africa","Afrique occidentale","África occidental","غرب أفريقيا","西非","Западная Африка"
"434","124","LY","LBY","Libya","Libye","Libia","ليبيا","利比亚","Ливия","the State of Libya","l'État de Libye","el Estado de Libia","دولة ليبيا","利比亚国","Государство Ливия","Africa","Afrique","África","أفريقيا","非洲","Африка","Upper-middle income countries","Pays à revenu intermédiaire de la tranche supérieure","Países de ingresos medianos altos","بلد من الشريحة العليا من البلدان المتوسطة الدخل","中上等收入国家","страна с уровнем дохода выше среднего","Northern Africa","Afrique septentrionale","África septentrional","أفريقيا الشمالية","北非","Северная Африка"
"438","125","LI","LIE","Liechtenstein","Liechtenstein","Liechtenstein","ليختنشتاين","列支敦士登","Лихтенштейн","the Principality of Liechtenstein","la Principauté du Liechtenstein","el Principado de Liechtenstein","إمارة ليختنشتاين","列支敦士登公国","Княжество Лихтенштейн","Europe","Europe","Europa","أوروبا","欧洲","Европа","High-income countries","Pays à revenu élevé","Países de ingresos altos","","高收入国家","страна с высоким уровнем дохода","Western Europe","Europe occidentale","Europa occidental","أوروبا الغربية","西欧","Западная Европа"
"440","126","LT","LTU","Lithuania","Lituanie","Lituania","ليتوانيا","立陶宛","Литва","the Republic of Lithuania","la République de Lituanie","la República de Lituania","جمهوريّة ليتوانيا","立陶宛共和国","Литовская Республика","Europe","Europe","Europa","أوروبا","欧洲","Европа","High-income countries","Pays à revenu élevé","Países de ingresos altos","","高收入国家","страна с высоким уровнем дохода","Northern Europe","Europe septentrionale","Europa del Norte","أوروبا الشمالية","北欧","Северная Европа"
"584","127","MH","MHL","Marshall Islands","Îles Marshall","Islas Marshall","جزر مارشال","马绍尔群岛","Маршалловы Острова","the Republic of the Marshall Islands","la République des Îles Marshall","la República de las Islas Marshall","جمهوريّة جزر مارشال","马绍尔群岛共和国","Республика Маршалловы Острова","Oceania","Océanie","Oceanía","أوقيانوسيا","大洋洲","Океания","Upper-middle income countries","Pays à revenu intermédiaire de la tranche supérieure","Países de ingresos medianos altos","بلد من الشريحة العليا من البلدان المتوسطة الدخل","中上等收入国家","страна с уровнем дохода выше среднего","Micronesia","Micronésie","Micronesia","ميكرونيزيا","密克罗尼西亚","Микронезия"
"446","128","MO","MAC","China, Macao SAR","Chine - RAS de Macao","China, RAE de Macao","الصين - مكاو منطقة إداريّة خاصّة","中国澳门特区","Китай, Специальный административный район Макао","China, Macao Special Administrative Region","Chine - Région administrative spéciale de Macao","China, Región Administrativa Especial de Macao","الصين - مكاو منطقة إداريّة خاصّة","中国澳门特别行政区","Китай, Специальный административный район Макао","Asia","Asie","Asia","آسيا","亚洲","Азия","High-income countries","Pays à revenu élevé","Países de ingresos altos","","高收入国家","страна с высоким уровнем дохода","Eastern Asia","Asie orientale","Asia oriental","شرقي آسيا","东亚","Восточная Азия"
"450","129","MG","MDG","Madagascar","Madagascar","Madagascar","مدغشقر","马达加斯加","Мадагаскар","the Republic of Madagascar","la République de Madagascar","la República de Madagascar","جمهوريّة مدغشقر","马达加斯加共和国","Республика Мадагаскар","Africa","Afrique","África","أفريقيا","非洲","Африка","Low-income countries","Pays à faible revenu","Países de bajos ingresos","بلدان الدخل المنخفض","低收入国家(简写为LIC)","страна с низким уровнем дохода","Eastern Africa","Afrique orientale","África oriental","شرق أفريقيا","东非","Восточная Африка"
"454","130","MW","MWI","Malawi","Malawi","Malawi","ملاوي","马拉维","Малави","the Republic of Malawi","la République du Malawi","la República de Malawi","جمهوريّة ملاوي","马拉维共和国","Республика Малави","Africa","Afrique","África","أفريقيا","非洲","Африка","Low-income countries","Pays à faible revenu","Países de bajos ingresos","بلدان الدخل المنخفض","低收入国家(简写为LIC)","страна с низким уровнем дохода","Eastern Africa","Afrique orientale","África oriental","شرق أفريقيا","东非","Восточная Африка"
"458","131","MY","MYS","Malaysia","Malaisie","Malasia","ماليزيا","马来西亚","Малайзия","Malaysia","la Malaisie","Malasia","ماليزيا","马来西亚","Малайзия","Asia","Asie","Asia","آسيا","亚洲","Азия","Upper-middle income countries","Pays à revenu intermédiaire de la tranche supérieure","Países de ingresos medianos altos","بلد من الشريحة العليا من البلدان المتوسطة الدخل","中上等收入国家","страна с уровнем дохода выше среднего","South-Eastern Asia","Asie du Sud-Est","Asia sudoriental","جنوب شرقي آسيا","东南亚","Юго-Восточная Азия"
"462","132","MV","MDV","Maldives","Maldives","Maldivas","ملديف","马尔代夫","Мальдивские Острова","the Republic of Maldives","la République des Maldives","la República de Maldivas","جمهوريّة ملديف","马尔代夫共和国","Мальдивская Республика","Asia","Asie","Asia","آسيا","亚洲","Азия","Upper-middle income countries","Pays à revenu intermédiaire de la tranche supérieure","Países de ingresos medianos altos","بلد من الشريحة العليا من البلدان المتوسطة الدخل","中上等收入国家","страна с уровнем дохода выше среднего","Southern Asia","Asie méridionale","Asia meridional","جنوب آسيا","南亚","Южная Азия"
"466","133","ML","MLI","Mali","Mali","Malí","مالي","马里","Мали","the Republic of Mali","la République du Mali","la República de Malí","جمهوريّة مالي","马里共和国","Республика Мали","Africa","Afrique","África","أفريقيا","非洲","Африка","Low-income countries","Pays à faible revenu","Países de bajos ingresos","بلدان الدخل المنخفض","低收入国家(简写为LIC)","страна с низким уровнем дохода","Western Africa","Afrique occidentale","África occidental","غرب أفريقيا","西非","Западная Африка"
"470","134","MT","MLT","Malta","Malte","Malta","مالطة","马耳他","Мальта","the Republic of Malta","la République de Malte","la República de Malta","جمهوريّة مالطة","马耳他共和国","Республика Мальта","Europe","Europe","Europa","أوروبا","欧洲","Европа","High-income countries","Pays à revenu élevé","Países de ingresos altos","","高收入国家","страна с высоким уровнем дохода","Southern Europe","Europe méridionale","Europa meridional","أوروبا الجنوبية","南欧","Южная Европа"
"474","135","MQ","MTQ","Martinique","Martinique","Martinica","مارتينيك","马提尼克","Мартиника","Martinique","la Martinique","Martinica","مارتينيك","马提尼克","Мартиника","Americas","Amériques","Américas","الأمريكتان","美洲","Северная и Южная Америка","Countries not classified by World Bank","Pays pas classé par la Banque Mondiale","Países no clasificados por el Banco Mundial","","","","Caribbean","Caraïbes","Caribe","منطقة البحر الكاريبي","加勒比","Карибский бассейн"
"478","136","MR","MRT","Mauritania","Mauritanie","Mauritania","موريتانيا","毛里塔尼亚","Мавритания","the Islamic Republic of Mauritania","la République islamique de Mauritanie","la República Islámica de Mauritania","الجمهوريّة الإسلامية الموريتانية","毛里塔尼亚伊斯兰共和国","Исламская Республика Мавритания","Africa","Afrique","África","أفريقيا","非洲","Африка","Lower-middle income countries","Pays à revenu intermédiaire de la tranche inférieure","Países de ingresos medianos bajos","","","","Western Africa","Afrique occidentale","África occidental","غرب أفريقيا","西非","Западная Африка"
"480","137","MU","MUS","Mauritius","Maurice","Mauricio","موريشيوس","毛里求斯","Маврикий","the Republic of Mauritius","la République de Maurice","la República de Mauricio","جمهوريّة موريشيوس","毛里求斯共和国","Республика Маврикий","Africa","Afrique","África","أفريقيا","非洲","Африка","Upper-middle income countries","Pays à revenu intermédiaire de la tranche supérieure","Países de ingresos medianos altos","بلد من الشريحة العليا من البلدان المتوسطة الدخل","中上等收入国家","страна с уровнем дохода выше среднего","Eastern Africa","Afrique orientale","África oriental","شرق أفريقيا","东非","Восточная Африка"
"484","138","MX","MEX","Mexico","Mexique","México","المكسيك","墨西哥","Мексика","the United Mexican States","les États-Unis du Mexique","los Estados Unidos Mexicanos","الولايات المتحدة المكسيكيّة","墨西哥合众国","Мексиканские Соединенные Штаты","Americas","Amériques","Américas","الأمريكتان","美洲","Северная и Южная Америка","Upper-middle income countries","Pays à revenu intermédiaire de la tranche supérieure","Países de ingresos medianos altos","بلد من الشريحة العليا من البلدان المتوسطة الدخل","中上等收入国家","страна с уровнем дохода выше среднего","Central America","Amérique centrale","América central","أمريكا الوسطى","中美洲","Центральная Америка"
"488","139","MI","MID","Midway Islands [former]","îles Midway [ex-]","Islas Midway [ex]","جزر ميدواي [السابق]","中途岛 [以前的]","острова Мидуэй [бывший]","the Midway Islands [former]","les îles Midway [ex-]","las Islas Midway [ex]","جزر ميدواي [السابق]","中途岛 [以前的]","острова Мидуэй [бывший]","","","","","","","","","","","","","","","","","",""
"492","140","MC","MCO","Monaco","Monaco","Mónaco","موناكو","摩纳哥","Монако","the Principality of Monaco","la Principauté de Monaco","el Principado de Mónaco","إمارة موناكو","摩纳哥公国","Княжество Монако","Europe","Europe","Europa","أوروبا","欧洲","Европа","High-income countries","Pays à revenu élevé","Países de ingresos altos","","高收入国家","страна с высоким уровнем дохода","Western Europe","Europe occidentale","Europa occidental","أوروبا الغربية","西欧","Западная Европа"
"496","141","MN","MNG","Mongolia","Mongolie","Mongolia","منغوليا","蒙古","Монголия","Mongolia","la Mongolie","Mongolia","منغوليا","蒙古国","Монголия","Asia","Asie","Asia","آسيا","亚洲","Азия","Upper-middle income countries","Pays à revenu intermédiaire de la tranche supérieure","Países de ingresos medianos altos","بلد من الشريحة العليا من البلدان المتوسطة الدخل","中上等收入国家","страна с уровнем дохода выше среднего","Eastern Asia","Asie orientale","Asia oriental","شرقي آسيا","东亚","Восточная Азия"
"500","142","MS","MSR","Montserrat","Montserrat","Montserrat","مونتيسيرات","蒙特塞拉特","Монтсеррат","Montserrat","Montserrat","Montserrat","مونتيسيرات","蒙特塞拉特","Монтсеррат","Americas","Amériques","Américas","الأمريكتان","美洲","Северная и Южная Америка","Countries not classified by World Bank","Pays pas classé par la Banque Mondiale","Países no clasificados por el Banco Mundial","","","","Caribbean","Caraïbes","Caribe","منطقة البحر الكاريبي","加勒比","Карибский бассейн"
"504","143","MA","MAR","Morocco","Maroc","Marruecos","المغرب","摩洛哥","Марокко","the Kingdom of Morocco","le Royaume du Maroc","el Reino de Marruecos","المملكة المغربيّة","摩洛哥王国","Королевство Марокко","Africa","Afrique","África","أفريقيا","非洲","Африка","Lower-middle income countries","Pays à revenu intermédiaire de la tranche inférieure","Países de ingresos medianos bajos","","","","Northern Africa","Afrique septentrionale","África septentrional","أفريقيا الشمالية","北非","Северная Африка"
"508","144","MZ","MOZ","Mozambique","Mozambique","Mozambique","موزامبيق","莫桑比克","Мозамбик","the Republic of Mozambique","la République du Mozambique","la República de Mozambique","جمهوريّة موزامبيق","莫桑比克共和国","Республика Мозамбик","Africa","Afrique","África","أفريقيا","非洲","Африка","Low-income countries","Pays à faible revenu","Países de bajos ingresos","بلدان الدخل المنخفض","低收入国家(简写为LIC)","страна с низким уровнем дохода","Eastern Africa","Afrique orientale","África oriental","شرق أفريقيا","东非","Восточная Африка"
"583","145","FM","FSM","Micronesia (Federated States of)","Micronésie (États fédérés de)","Micronesia (Estados Federados de)","ميكرونيزيا (ولايات - الموحدة)","密克罗尼西亚联邦","Микронезия (Федеративные Штаты)","the Federated States of Micronesia","les États fédérés de Micronésie","los Estados Federados de Micronesia","ولايات ميكرونيزيا الموحدة","密克罗尼西亚联邦","Федеративные Штаты Микронезии","Oceania","Océanie","Oceanía","أوقيانوسيا","大洋洲","Океания","Lower-middle income countries","Pays à revenu intermédiaire de la tranche inférieure","Países de ingresos medianos bajos","","","","Micronesia","Micronésie","Micronesia","ميكرونيزيا","密克罗尼西亚","Микронезия"
"498","146","MD","MDA","Republic of Moldova","République de Moldova","República de Moldova","جمهوريّة مولدوفا","摩尔多瓦共和国","Республика Молдова","the Republic of Moldova","la République de Moldova","la República de Moldova","جمهوريّة مولدوفا","摩尔多瓦共和国","Республика Молдова","Europe","Europe","Europa","أوروبا","欧洲","Европа","Upper-middle income countries","Pays à revenu intermédiaire de la tranche supérieure","Países de ingresos medianos altos","بلد من الشريحة العليا من البلدان المتوسطة الدخل","中上等收入国家","страна с уровнем дохода выше среднего","Eastern Europe","Europe orientale","Europa oriental","أوروبا الشرقية","东欧","Восточная Европа"
"516","147","NA","NAM","Namibia","Namibie","Namibia","ناميبيا","纳米比亚","Намибия","the Republic of Namibia","la République de Namibie","la República de Namibia","جمهوريّة ناميبيا","纳米比亚共和国","Республика Намибия","Africa","Afrique","África","أفريقيا","非洲","Африка","Upper-middle income countries","Pays à revenu intermédiaire de la tranche supérieure","Países de ingresos medianos altos","بلد من الشريحة العليا من البلدان المتوسطة الدخل","中上等收入国家","страна с уровнем дохода выше среднего","Southern Africa","Afrique australe","África austral","الجنوب الأفريقي","南部非洲","Южная часть Африки"
"520","148","NR","NRU","Nauru","Nauru","Nauru","ناورو","瑙鲁","Науру","the Republic of Nauru","la République de Nauru","la República de Nauru","جمهوريّة ناورو","瑙鲁共和国","Республика Науру","Oceania","Océanie","Oceanía","أوقيانوسيا","大洋洲","Океания","High-income countries","Pays à revenu élevé","Países de ingresos altos","","高收入国家","страна с высоким уровнем дохода","Micronesia","Micronésie","Micronesia","ميكرونيزيا","密克罗尼西亚","Микронезия"
"524","149","NP","NPL","Nepal","Népal","Nepal","نيبال","尼泊尔","Непал","Nepal","le Népal","Nepal","نيبال","尼泊尔","Непал","Asia","Asie","Asia","آسيا","亚洲","Азия","Lower-middle income countries","Pays à revenu intermédiaire de la tranche inférieure","Países de ingresos medianos bajos","","","","Southern Asia","Asie méridionale","Asia meridional","جنوب آسيا","南亚","Южная Азия"
"528","150","NL","NLD","Netherlands (Kingdom of the)","Pays-Bas (Royaume des)","Países Bajos (Reino de los)","هولندا (مملكة _)","荷兰王国","Нидерланды (Королевство)","the Kingdom of the Netherlands","le Royaume des Pays-Bas","el Reino de los Países Bajos","مملكة هولندا","荷兰王国","Королевство Нидерландов","Europe","Europe","Europa","أوروبا","欧洲","Европа","High-income countries","Pays à revenu élevé","Países de ingresos altos","","高收入国家","страна с высоким уровнем дохода","Western Europe","Europe occidentale","Europa occidental","أوروبا الغربية","西欧","Западная Европа"
"530","151","AN","ANT","Netherlands Antilles [former]","Antilles néerlandaises [ex-]","Antillas Neerlandesas [ex]","من جزر الأنتيل الهولندية [السابق]","荷属安的列斯人/属安的列斯人的 [以前的]","(из/ житель) Голландских Антильских островов [бывший]","Netherlands Antilles [former]","les Antilles néerlandaises [ex-]","Antillas Neerlandesas [ex]","من جزر الأنتيل الهولندية [السابق]","荷属安的列斯人/属安的列斯人的 [以前的]","(из/ житель) Голландских Антильских островов [бывший]","Americas","Amériques","Américas","الأمريكتان","美洲","Северная и Южная Америка","Countries not classified by World Bank","Pays pas classé par la Banque Mondiale","Países no clasificados por el Banco Mundial","","","","Caribbean","Caraïbes","Caribe","منطقة البحر الكاريبي","加勒比","Карибский бассейн"
"536","152","","","Neutral Zone","Zone Neutre","Zona Neutral","المنطقة المحايدة","中立区","Нейтральная зона","the Neutral Zone","Zone Neutre","Zona Neutral","المنطقة المحايدة","中立区","Нейтральная зона","","","","","","","","","","","","","","","","","",""
"540","153","NC","NCL","New Caledonia","Nouvelle-Calédonie","Nueva Caledonia","كاليدونيا الجديدة","新喀里多尼亚","Новая Каледония","New Caledonia","la Nouvelle-Calédonie","Nueva Caledonia","كاليدونيا الجديدة","新喀里多尼亚","Новая Каледония","Oceania","Océanie","Oceanía","أوقيانوسيا","大洋洲","Океания","High-income countries","Pays à revenu élevé","Países de ingresos altos","","高收入国家","страна с высоким уровнем дохода","Melanesia","Mélanésie","Melanesia","ميلانيزيا","美拉尼西亚","Меланезия"
"807","154","MK","MKD","North Macedonia","Macédoine du Nord","Macedonia del Norte","مقدونيا الشمالية","北马其顿","Северная Македония","the Republic of North Macedonia","la République de Macédoine du Nord","la República de Macedonia del Norte","جمهورية مقدونيا الشمالية","北马其顿共和国","Республика Северная Македония","Europe","Europe","Europa","أوروبا","欧洲","Европа","Upper-middle income countries","Pays à revenu intermédiaire de la tranche supérieure","Países de ingresos medianos altos","بلد من الشريحة العليا من البلدان المتوسطة الدخل","中上等收入国家","страна с уровнем дохода выше среднего","Southern Europe","Europe méridionale","Europa meridional","أوروبا الجنوبية","南欧","Южная Европа"
"548","155","VU","VUT","Vanuatu","Vanuatu","Vanuatu","فانواتو","瓦努阿图","Вануату","the Republic of Vanuatu","la République de Vanuatu","la República de Vanuatu","جمهوريّة فانواتو","瓦努阿图共和国","Республика Вануату","Oceania","Océanie","Oceanía","أوقيانوسيا","大洋洲","Океания","Lower-middle income countries","Pays à revenu intermédiaire de la tranche inférieure","Países de ingresos medianos bajos","","","","Melanesia","Mélanésie","Melanesia","ميلانيزيا","美拉尼西亚","Меланезия"
"554","156","NZ","NZL","New Zealand","Nouvelle-Zélande","Nueva Zelandia","نيوزيلندا","新西兰","Новая Зеландия","New Zealand","la Nouvelle-Zélande","Nueva Zelandia","نيوزيلندا","新西兰","Новая Зеландия","Oceania","Océanie","Oceanía","أوقيانوسيا","大洋洲","Океания","High-income countries","Pays à revenu élevé","Países de ingresos altos","","高收入国家","страна с высоким уровнем дохода","Australia and New Zealand","Australie et Nouvelle-Zélande","Australia y Nueva Zelandia","أستراليا ونيوزيلندا","澳大利亚和新西兰","Австралия и Новая Зеландия"
"558","157","NI","NIC","Nicaragua","Nicaragua","Nicaragua","نيكاراغوا","尼加拉瓜","Никарагуа","the Republic of Nicaragua","la République du Nicaragua","la República de Nicaragua","جمهوريّة نيكاراغوا","尼加拉瓜共和国","Республика Никарагуа","Americas","Amériques","Américas","الأمريكتان","美洲","Северная и Южная Америка","Lower-middle income countries","Pays à revenu intermédiaire de la tranche inférieure","Países de ingresos medianos bajos","","","","Central America","Amérique centrale","América central","أمريكا الوسطى","中美洲","Центральная Америка"
"562","158","NE","NER","Niger","Niger","Níger","النيجر","尼日尔","Нигер","the Republic of the Niger","la République du Niger","la República del Níger","جمهوريّة النيجر","尼日尔共和国","Республика Нигер","Africa","Afrique","África","أفريقيا","非洲","Африка","Low-income countries","Pays à faible revenu","Países de bajos ingresos","بلدان الدخل المنخفض","低收入国家(简写为LIC)","страна с низким уровнем дохода","Western Africa","Afrique occidentale","África occidental","غرب أفريقيا","西非","Западная Африка"
"566","159","NG","NGA","Nigeria","Nigéria","Nigeria","نيجيريا","尼日利亚","Нигерия","the Federal Republic of Nigeria","la République fédérale du Nigéria","la República Federal de Nigeria","جمهوريّة نيجيريا الاتحادية","尼日利亚联邦共和国","Федеративная Республика Нигерия","Africa","Afrique","África","أفريقيا","非洲","Африка","Lower-middle income countries","Pays à revenu intermédiaire de la tranche inférieure","Países de ingresos medianos bajos","","","","Western Africa","Afrique occidentale","África occidental","غرب أفريقيا","西非","Западная Африка"
"570","160","NU","NIU","Niue","Nioué","Niue","نيوي","纽埃","Ниуэ","Niue","Nioué","Niue","نيوي","纽埃","Ниуэ","Oceania","Océanie","Oceanía","أوقيانوسيا","大洋洲","Океания","Countries not classified by World Bank","Pays pas classé par la Banque Mondiale","Países no clasificados por el Banco Mundial","","","","Polynesia","Polynésie","Polinesia","بولينيزيا","波利尼西亚","Полинезия"
"574","161","NF","NFK","Norfolk Island","Île Norfolk","Isla Norfolk","جزيرة نورفولك","诺福克岛","остров Норфолк","Norfolk Island","l'Île Norfolk","la Isla Norfolk","جزيرة نورفولك","诺福克岛领地","остров Норфолк","Oceania","Océanie","Oceanía","أوقيانوسيا","大洋洲","Океания","Countries not classified by World Bank","Pays pas classé par la Banque Mondiale","Países no clasificados por el Banco Mundial","","","","Australia and New Zealand","Australie et Nouvelle-Zélande","Australia y Nueva Zelandia","أستراليا ونيوزيلندا","澳大利亚和新西兰","Австралия и Новая Зеландия"
"578","162","NO","NOR","Norway","Norvège","Noruega","النرويج","挪威","Норвегия","the Kingdom of Norway","le Royaume de Norvège","el Reino de Noruega","مملكة النرويج","挪威王国","Королевство Норвегия","Europe","Europe","Europa","أوروبا","欧洲","Европа","High-income countries","Pays à revenu élevé","Países de ingresos altos","","高收入国家","страна с высоким уровнем дохода","Northern Europe","Europe septentrionale","Europa del Norte","أوروبا الشمالية","北欧","Северная Европа"
"580","163","MP","MNP","Northern Mariana Islands","Îles Mariannes du Nord","Islas Marianas del Norte","جزر ماريانا الشمالية","北马里亚纳群岛","Северные Марианские острова","the Commonwealth of the Northern Mariana Islands","le Commonwealth des Îles Mariannes du Nord","la Mancomunidad de las Islas Marianas del Norte","كومنولث جزر ماريانا الشمالية","北马里亚纳群岛","Содружество Северных Марианских островов","Oceania","Océanie","Oceanía","أوقيانوسيا","大洋洲","Океания","High-income countries","Pays à revenu élevé","Países de ingresos altos","","高收入国家","страна с высоким уровнем дохода","Micronesia","Micronésie","Micronesia","ميكرونيزيا","密克罗尼西亚","Микронезия"
"582","164","","","Trust Territory of the Pacific Islands [former]","Territoire sous tutelle des Îles du Pacifique [ex-]","Territorio en Fideicomiso de las Islas del Pacífico [ex]","إقليم جزر المحيط الهادئ المشمول بالوصاية [السابق]","太平洋岛屿托管领土 [以前的]","подопечная территория Тихоокеанские острова [бывший]","the Trust Territory of the Pacific Islands [former]","le Territoire sous tutelle des Îles du Pacifique [ex-]","el Territorio en Fideicomiso de las Islas del Pacífico [ex]","إقليم جزر المحيط الهادئ المشمول بالوصاية [السابق]","太平洋岛屿托管领土 [以前的]","подопечная территория Тихоокеанские острова [бывший]","","","","","","","","","","","","","","","","","",""
"586","165","PK","PAK","Pakistan","Pakistan","Pakistán","باكستان","巴基斯坦","Пакистан","the Islamic Republic of Pakistan","la République islamique du Pakistan","la República Islámica del Pakistán","جمهوريّة باكستان الإسلاميّة","巴基斯坦伊斯兰共和国","Исламская Республика Пакистан","Asia","Asie","Asia","آسيا","亚洲","Азия","Lower-middle income countries","Pays à revenu intermédiaire de la tranche inférieure","Países de ingresos medianos bajos","","","","Southern Asia","Asie méridionale","Asia meridional","جنوب آسيا","南亚","Южная Азия"
"591","166","PA","PAN","Panama","Panama","Panamá","بنما","巴拿马","Панама","the Republic of Panama","la République du Panama","la República de Panamá","جمهوريّة بنما","巴拿马共和国","Республика Панама","Americas","Amériques","Américas","الأمريكتان","美洲","Северная и Южная Америка","High-income countries","Pays à revenu élevé","Países de ingresos altos","","高收入国家","страна с высоким уровнем дохода","Central America","Amérique centrale","América central","أمريكا الوسطى","中美洲","Центральная Америка"
"203","167","CZ","CZE","Czechia","Tchéquie","Chequia","تشيكيا","捷克","Чехия","the Czech Republic","la République tchèque","la República Checa","الجمهوريّة التشيكيّة","捷克共和国","Чешская Республика","Europe","Europe","Europa","أوروبا","欧洲","Европа","High-income countries","Pays à revenu élevé","Países de ingresos altos","","高收入国家","страна с высоким уровнем дохода","Eastern Europe","Europe orientale","Europa oriental","أوروبا الشرقية","东欧","Восточная Европа"
"598","168","PG","PNG","Papua New Guinea","Papouasie-Nouvelle-Guinée","Papua Nueva Guinea","بابوا غينيا الجديدة","巴布亚新几内亚","Папуа – Новая Гвинея","the Independent State of Papua New Guinea","l'État indépendant de Papouasie-Nouvelle-Guinée","el Estado Independiente de Papua Nueva Guinea","دولة بابوا غينيا الجديدة المستقلة","巴布亚新几内亚独立国","Независимое государство Папуа – Новая Гвинея","Oceania","Océanie","Oceanía","أوقيانوسيا","大洋洲","Океания","Lower-middle income countries","Pays à revenu intermédiaire de la tranche inférieure","Países de ingresos medianos bajos","","","","Melanesia","Mélanésie","Melanesia","ميلانيزيا","美拉尼西亚","Меланезия"
"600","169","PY","PRY","Paraguay","Paraguay","Paraguay","باراغواي","巴拉圭","Парагвай","the Republic of Paraguay","la République du Paraguay","la República del Paraguay","جمهوريّة باراغواي","巴拉圭共和国","Республика Парагвай","Americas","Amériques","Américas","الأمريكتان","美洲","Северная и Южная Америка","Upper-middle income countries","Pays à revenu intermédiaire de la tranche supérieure","Países de ingresos medianos altos","بلد من الشريحة العليا من البلدان المتوسطة الدخل","中上等收入国家","страна с уровнем дохода выше среднего","South America","Amérique du Sud","América del Sur","أمريكا الجنوبية","南美洲","Южная Америка"
"604","170","PE","PER","Peru","Pérou","Perú","بيرو","秘鲁","Перу","the Republic of Peru","la République du Pérou","la República del Perú","جمهوريّة بيرو","秘鲁共和国","Республика Перу","Americas","Amériques","Américas","الأمريكتان","美洲","Северная и Южная Америка","Upper-middle income countries","Pays à revenu intermédiaire de la tranche supérieure","Países de ingresos medianos altos","بلد من الشريحة العليا من البلدان المتوسطة الدخل","中上等收入国家","страна с уровнем дохода выше среднего","South America","Amérique du Sud","América del Sur","أمريكا الجنوبية","南美洲","Южная Америка"
"608","171","PH","PHL","Philippines","Philippines","Filipinas","الفلبين","菲律宾","Филиппины","the Republic of the Philippines","la République des Philippines","la República de Filipinas","جمهوريّة الفلبين","菲律宾共和国","Республика Филиппины","Asia","Asie","Asia","آسيا","亚洲","Азия","Lower-middle income countries","Pays à revenu intermédiaire de la tranche inférieure","Países de ingresos medianos bajos","","","","South-Eastern Asia","Asie du Sud-Est","Asia sudoriental","جنوب شرقي آسيا","东南亚","Юго-Восточная Азия"
"612","172","PN","PCN","Pitcairn","Pitcairn","Pitcairn","بيتكيرن","皮特克恩","Питкэрн","Pitcairn","Pitcairn","Pitcairn","بيتكيرن","皮特克恩","Питкэрн","Oceania","Océanie","Oceanía","أوقيانوسيا","大洋洲","Океания","Countries not classified by World Bank","Pays pas classé par la Banque Mondiale","Países no clasificados por el Banco Mundial","","","","Polynesia","Polynésie","Polinesia","بولينيزيا","波利尼西亚","Полинезия"
"616","173","PL","POL","Poland","Pologne","Polonia","بولندا","波兰","Польша","the Republic of Poland","la République de Pologne","la República de Polonia","جمهوريّة بولندا","波兰共和国","Республика Польша","Europe","Europe","Europa","أوروبا","欧洲","Европа","High-income countries","Pays à revenu élevé","Países de ingresos altos","","高收入国家","страна с высоким уровнем дохода","Eastern Europe","Europe orientale","Europa oriental","أوروبا الشرقية","东欧","Восточная Европа"
"620","174","PT","PRT","Portugal","Portugal","Portugal","البرتغال","葡萄牙","Португалия","the Portuguese Republic","la République portugaise","la República Portuguesa","جمهوريّة البرتغال","葡萄牙共和国","Португальская Республика","Europe","Europe","Europa","أوروبا","欧洲","Европа","High-income countries","Pays à revenu élevé","Países de ingresos altos","","高收入国家","страна с высоким уровнем дохода","Southern Europe","Europe méridionale","Europa meridional","أوروبا الجنوبية","南欧","Южная Европа"
"624","175","GW","GNB","Guinea-Bissau","Guinée-Bissau","Guinea-Bissau","غينيا - بيساو","几内亚比绍","Гвинея-Бисау","the Republic of Guinea-Bissau","la République de Guinée-Bissau","la República de Guinea-Bissau","جمهورية غينيا - بيساو","几内亚比绍共和国","Республика Гвинея-Бисау","Africa","Afrique","África","أفريقيا","非洲","Африка","Low-income countries","Pays à faible revenu","Países de bajos ingresos","بلدان الدخل المنخفض","低收入国家(简写为LIC)","страна с низким уровнем дохода","Western Africa","Afrique occidentale","África occidental","غرب أفريقيا","西非","Западная Африка"
"626","176","TL","TLS","Timor-Leste","Timor-Leste","Timor-Leste","تيمور - ليشتي","东帝汶","Тимор-Лешти","the Democratic Republic of Timor-Leste","la République démocratique du Timor-Leste","la República Democrática de Timor-Leste","جمهوريّة تيمور - ليشتي الديمقراطيّة","东帝汶民主共和国","Демократическая Республика Тимор-Лешти","Asia","Asie","Asia","آسيا","亚洲","Азия","Lower-middle income countries","Pays à revenu intermédiaire de la tranche inférieure","Países de ingresos medianos bajos","","","","South-Eastern Asia","Asie du Sud-Est","Asia sudoriental","جنوب شرقي آسيا","东南亚","Юго-Восточная Азия"
"630","177","PR","PRI","Puerto Rico","Porto Rico","Puerto Rico","بورتوريكو","波多黎各","Пуэрто-Рико","the Commonwealth of Puerto Rico","l'État libre associé de Porto Rico","el Estado Libre Asociado de Puerto Rico","كومنولث بورتوريكو","波多黎各自由联邦","Содружество Пуэрто-Рико","Americas","Amériques","Américas","الأمريكتان","美洲","Северная и Южная Америка","High-income countries","Pays à revenu élevé","Países de ingresos altos","","高收入国家","страна с высоким уровнем дохода","Caribbean","Caraïbes","Caribe","منطقة البحر الكاريبي","加勒比","Карибский бассейн"
"232","178","ER","ERI","Eritrea","Érythrée","Eritrea","إريتريا","厄立特里亚","Эритрея","the State of Eritrea","l'État d'Érythrée","el Estado de Eritrea","دولة إريتريا","厄立特里亚国","Государство Эритрея","Africa","Afrique","África","أفريقيا","非洲","Африка","Low-income countries","Pays à faible revenu","Países de bajos ingresos","بلدان الدخل المنخفض","低收入国家(简写为LIC)","страна с низким уровнем дохода","Eastern Africa","Afrique orientale","África oriental","شرق أفريقيا","东非","Восточная Африка"
"634","179","QA","QAT","Qatar","Qatar","Qatar","قطر","卡塔尔","Катар","the State of Qatar","l'État du Qatar","el Estado de Qatar","دولة قطر","卡塔尔国","Государство Катар","Asia","Asie","Asia","آسيا","亚洲","Азия","High-income countries","Pays à revenu élevé","Países de ingresos altos","","高收入国家","страна с высоким уровнем дохода","Western Asia","Asie occidentale","Asia occidental","غربي آسيا","西亚","Западная Азия"
"585","180","PW","PLW","Palau","Palaos","Palau","بالاو","帕劳","Палау","the Republic of Palau","la République des Palaos","la República de Palau","جمهوريّة بالاو","帕劳共和国","Республика Палау","Oceania","Océanie","Oceanía","أوقيانوسيا","大洋洲","Океания","High-income countries","Pays à revenu élevé","Países de ingresos altos","","高收入国家","страна с высоким уровнем дохода","Micronesia","Micronésie","Micronesia","ميكرونيزيا","密克罗尼西亚","Микронезия"
"716","181","ZW","ZWE","Zimbabwe","Zimbabwe","Zimbabwe","زمبابوي","津巴布韦","Зимбабве","the Republic of Zimbabwe","la République du Zimbabwe","la República de Zimbabwe","جمهوريّة زمبابوي","津巴布韦共和国","Республика Зимбабве","Africa","Afrique","África","أفريقيا","非洲","Африка","Lower-middle income countries","Pays à revenu intermédiaire de la tranche inférieure","Países de ingresos medianos bajos","","","","Eastern Africa","Afrique orientale","África oriental","شرق أفريقيا","东非","Восточная Африка"
"638","182","RE","REU","Réunion","Réunion","Reunión","رييونيون","留尼汪","Реюньон","Réunion","la Réunion","Reunión","رييونيون","留尼汪","Реюньон","Africa","Afrique","África","أفريقيا","非洲","Африка","Countries not classified by World Bank","Pays pas classé par la Banque Mondiale","Países no clasificados por el Banco Mundial","","","","Eastern Africa","Afrique orientale","África oriental","شرق أفريقيا","东非","Восточная Африка"
"642","183","RO","ROU","Romania","Roumanie","Rumanía","رومانيا","罗马尼亚","Румыния","Romania","la Roumanie","Rumanía","رومانيا","罗马尼亚","Румыния","Europe","Europe","Europa","أوروبا","欧洲","Европа","High-income countries","Pays à revenu élevé","Países de ingresos altos","","高收入国家","страна с высоким уровнем дохода","Eastern Europe","Europe orientale","Europa oriental","أوروبا الشرقية","东欧","Восточная Европа"
"646","184","RW","RWA","Rwanda","Rwanda","Rwanda","رواندا","卢旺达","Руанда","the Republic of Rwanda","la République du Rwanda","la República de Rwanda","جمهوريّة رواندا","卢旺达共和国","Республика Руанда","Africa","Afrique","África","أفريقيا","非洲","Африка","Low-income countries","Pays à faible revenu","Países de bajos ingresos","بلدان الدخل المنخفض","低收入国家(简写为LIC)","страна с низким уровнем дохода","Eastern Africa","Afrique orientale","África oriental","شرق أفريقيا","东非","Восточная Африка"
"643","185","RU","RUS","Russian Federation","Fédération de Russie","Federación de Rusia","الاتحاد الروسي","俄罗斯联邦","Российская Федерация","the Russian Federation","la Fédération de Russie","la Federación de Rusia","الاتحاد الروسي","俄罗斯联邦","Российская Федерация","Europe","Europe","Europa","أوروبا","欧洲","Европа","High-income countries","Pays à revenu élevé","Países de ingresos altos","","高收入国家","страна с высоким уровнем дохода","Eastern Europe","Europe orientale","Europa oriental","أوروبا الشرقية","东欧","Восточная Европа"
"891","186","CS","SCG","Serbia and Montenegro [former]","Serbie-et-Monténégro [ex-]","Serbia y Montenegro [ex]","","","","Serbia and Montenegro [former]","Serbie-et-Monténégro [ex-]","Serbia y Montenegro [ex]","","","","Europe","Europe","Europa","أوروبا","欧洲","Европа","Countries not classified by World Bank","Pays pas classé par la Banque Mondiale","Países no clasificados por el Banco Mundial","","","","Southern Europe","Europe méridionale","Europa meridional","أوروبا الجنوبية","南欧","Южная Европа"
"654","187","SH","SHN","Ascension, Saint Helena and Tristan da Cunha","Ascension, Sainte-Hélène et Tristan da Cunha","Ascensión, Santa Elena y Tristán de Acuña","سانت هيلانة وأسنسيون وتريستان دا كونا","阿森松、圣赫勒拿和特⾥斯坦-达库尼亚","острова Вознесения, Святой Елены и Тристан-да-Кунья","Ascension, Saint Helena and Tristan da Cunha","Ascension, Sainte-Hélène et Tristan da Cunha","Ascensión, Santa Elena y Tristán de Acuña","سانت هيلانة وأسنسيون وتريستان دا كونا","阿森松、圣赫勒拿和特⾥斯坦-达库尼亚","острова Вознесения, Святой Елены и Тристан-да-Кунья","Africa","Afrique","África","أفريقيا","非洲","Африка","Countries not classified by World Bank","Pays pas classé par la Banque Mondiale","Países no clasificados por el Banco Mundial","","","","Western Africa","Afrique occidentale","África occidental","غرب أفريقيا","西非","Западная Африка"
"659","188","KN","KNA","Saint Kitts and Nevis","Saint-Kitts-et-Nevis","Saint Kitts y Nevis","سانت كيتس ونيفس","圣基茨和尼维斯","Сент-Китс и Невис","Saint Kitts and Nevis","Saint-Kitts-et-Nevis","Saint Kitts y Nevis","سانت كيتس ونيفس","圣基茨和尼维斯","Сент-Китс и Невис","Americas","Amériques","Américas","الأمريكتان","美洲","Северная и Южная Америка","High-income countries","Pays à revenu élevé","Países de ingresos altos","","高收入国家","страна с высоким уровнем дохода","Caribbean","Caraïbes","Caribe","منطقة البحر الكاريبي","加勒比","Карибский бассейн"
"662","189","LC","LCA","Saint Lucia","Sainte-Lucie","Santa Lucía","سانت لوسيا","圣卢西亚","Сент-Люсия","Saint Lucia","Sainte-Lucie","Santa Lucía","سانت لوسيا","圣卢西亚","Сент-Люсия","Americas","Amériques","Américas","الأمريكتان","美洲","Северная и Южная Америка","Upper-middle income countries","Pays à revenu intermédiaire de la tranche supérieure","Países de ingresos medianos altos","بلد من الشريحة العليا من البلدان المتوسطة الدخل","中上等收入国家","страна с уровнем дохода выше среднего","Caribbean","Caraïbes","Caribe","منطقة البحر الكاريبي","加勒比","Карибский бассейн"
"666","190","PM","SPM","Saint Pierre and Miquelon","Saint-Pierre-et-Miquelon","San Pedro y Miquelón","سان بيير وميكلون","圣皮埃尔和密克隆","Сен-Пьер и Микелон","Saint Pierre and Miquelon","Saint-Pierre-et-Miquelon","San Pedro y Miquelón","سان بيير وميكلون","圣皮埃尔和密克隆","Сен-Пьер и Микелон","Americas","Amériques","Américas","الأمريكتان","美洲","Северная и Южная Америка","Countries not classified by World Bank","Pays pas classé par la Banque Mondiale","Países no clasificados por el Banco Mundial","","","","Northern America","Amérique du Nord","América del Norte","أمريكا الشمالية","北美","Северная Америка"
"670","191","VC","VCT","Saint Vincent and the Grenadines","Saint-Vincent-et-les Grenadines","San Vicente y las Granadinas","سانت فنسنت وجزر غرينادين","圣文森特和格林纳丁斯","Сент-Винсент и Гренадины","Saint Vincent and the Grenadines","Saint-Vincent-et-les Grenadines","San Vicente y las Granadinas","سانت فنسنت وجزر غرينادين","圣文森特和格林纳丁斯","Сент-Винсент и Гренадины","Americas","Amériques","Américas","الأمريكتان","美洲","Северная и Южная Америка","Upper-middle income countries","Pays à revenu intermédiaire de la tranche supérieure","Países de ingresos medianos altos","بلد من الشريحة العليا من البلدان المتوسطة الدخل","中上等收入国家","страна с уровнем дохода выше среднего","Caribbean","Caraïbes","Caribe","منطقة البحر الكاريبي","加勒比","Карибский бассейн"
"674","192","SM","SMR","San Marino","Saint-Marin","San Marino","سان مارينو","圣马力诺","Сан-Марино","the Republic of San Marino","la République de Saint-Marin","la República de San Marino","جمهوريّة سان مارينو","圣马力诺共和国","Республика Сан-Марино","Europe","Europe","Europa","أوروبا","欧洲","Европа","High-income countries","Pays à revenu élevé","Países de ingresos altos","","高收入国家","страна с высоким уровнем дохода","Southern Europe","Europe méridionale","Europa meridional","أوروبا الجنوبية","南欧","Южная Европа"
"678","193","ST","STP","Sao Tome and Principe","Sao Tomé-et-Principe","Santo Tomé y Príncipe","سان تومي وبرينسيبي","圣多美和普林西比","Сан-Томе и Принсипи","the Democratic Republic of Sao Tome and Principe","la République démocratique de Sao Tomé-et-Principe","la República Democrática de Santo Tomé y Príncipe","جمهورية سان تومي وبرينسيبي الديمقراطية","圣多美和普林西比民主共和国","Демократическая Республика Сан-Томе и Принсипи","Africa","Afrique","África","أفريقيا","非洲","Африка","Lower-middle income countries","Pays à revenu intermédiaire de la tranche inférieure","Países de ingresos medianos bajos","","","","Middle Africa","Afrique centrale","África central","وسط أفريقيا","中非","Центральная Африка"
"682","194","SA","SAU","Saudi Arabia","Arabie saoudite","Arabia Saudita","المملكة العربيّة السعوديّة","沙特阿拉伯","Саудовская Аравия","the Kingdom of Saudi Arabia","le Royaume d'Arabie saoudite","el Reino de la Arabia Saudita","المملكة العربيّة السعوديّة","沙特阿拉伯王国","Королевство Саудовская Аравия","Asia","Asie","Asia","آسيا","亚洲","Азия","High-income countries","Pays à revenu élevé","Países de ingresos altos","","高收入国家","страна с высоким уровнем дохода","Western Asia","Asie occidentale","Asia occidental","غربي آسيا","西亚","Западная Азия"
"686","195","SN","SEN","Senegal","Sénégal","Senegal","السنغال","塞内加尔","Сенегал","the Republic of Senegal","la République du Sénégal","la República del Senegal","جمهوريّة السنغال","塞内加尔共和国","Республика Сенегал","Africa","Afrique","África","أفريقيا","非洲","Африка","Lower-middle income countries","Pays à revenu intermédiaire de la tranche inférieure","Países de ingresos medianos bajos","","","","Western Africa","Afrique occidentale","África occidental","غرب أفريقيا","西非","Западная Африка"
"690","196","SC","SYC","Seychelles","Seychelles","Seychelles","سيشيل","塞舌尔","Сейшельские Острова","the Republic of Seychelles","la République des Seychelles","la República de Seychelles","جمهوريّة سيشيل","塞舌尔共和国","Республика Сейшельские Острова","Africa","Afrique","África","أفريقيا","非洲","Африка","High-income countries","Pays à revenu élevé","Países de ingresos altos","","高收入国家","страна с высоким уровнем дохода","Eastern Africa","Afrique orientale","África oriental","شرق أفريقيا","东非","Восточная Африка"
"694","197","SL","SLE","Sierra Leone","Sierra Leone","Sierra Leona","سيراليون","塞拉利昂","Сьерра-Леоне","the Republic of Sierra Leone","la République de Sierra Leone","la República de Sierra Leona","جمهوريّة سيراليون","塞拉利昂共和国","Республика Сьерра-Леоне","Africa","Afrique","África","أفريقيا","非洲","Африка","Low-income countries","Pays à faible revenu","Países de bajos ingresos","بلدان الدخل المنخفض","低收入国家(简写为LIC)","страна с низким уровнем дохода","Western Africa","Afrique occidentale","África occidental","غرب أفريقيا","西非","Западная Африка"
"705","198","SI","SVN","Slovenia","Slovénie","Eslovenia","سلوفينيا","斯洛文尼亚","Словения","the Republic of Slovenia","la République de Slovénie","la República de Eslovenia","جمهوريّة سلوفينيا","斯洛文尼亚共和国","Республика Словения","Europe","Europe","Europa","أوروبا","欧洲","Европа","High-income countries","Pays à revenu élevé","Países de ingresos altos","","高收入国家","страна с высоким уровнем дохода","Southern Europe","Europe méridionale","Europa meridional","أوروبا الجنوبية","南欧","Южная Европа"
"703","199","SK","SVK","Slovakia","Slovaquie","Eslovaquia","سلوفاكيا","斯洛伐克","Словакия","the Slovak Republic","la République slovaque","la República Eslovaca","الجمهوريّة السلوفاكية","斯洛伐克共和国","Словацкая Республика","Europe","Europe","Europa","أوروبا","欧洲","Европа","High-income countries","Pays à revenu élevé","Países de ingresos altos","","高收入国家","страна с высоким уровнем дохода","Eastern Europe","Europe orientale","Europa oriental","أوروبا الشرقية","东欧","Восточная Европа"
"702","200","SG","SGP","Singapore","Singapour","Singapur","سنغافورة","新加坡","Сингапур","the Republic of Singapore","la République de Singapour","la República de Singapur","جمهوريّة سنغافورة","新加坡共和国","Республика Сингапур","Asia","Asie","Asia","آسيا","亚洲","Азия","High-income countries","Pays à revenu élevé","Países de ingresos altos","","高收入国家","страна с высоким уровнем дохода","South-Eastern Asia","Asie du Sud-Est","Asia sudoriental","جنوب شرقي آسيا","东南亚","Юго-Восточная Азия"
"706","201","SO","SOM","Somalia","Somalie","Somalia","الصومال","索马里","Сомали","the Federal Republic of Somalia","la République fédérale de Somalie","la República Federal de Somalia","جمهوريّة الصومال الفيدرالية","索马里联邦共和国","Федеративная Республика Сомали","Africa","Afrique","África","أفريقيا","非洲","Африка","Low-income countries","Pays à faible revenu","Países de bajos ingresos","بلدان الدخل المنخفض","低收入国家(简写为LIC)","страна с низким уровнем дохода","Eastern Africa","Afrique orientale","África oriental","شرق أفريقيا","东非","Восточная Африка"
"710","202","ZA","ZAF","South Africa","Afrique du Sud","Sudáfrica","جنوب أفريقيا","南非","Южная Африка","the Republic of South Africa","la République sud-africaine","la República de Sudáfrica","جمهوريّة جنوب أفريقيا","南非共和国","Южно-Африканская Республика","Africa","Afrique","África","أفريقيا","非洲","Африка","Upper-middle income countries","Pays à revenu intermédiaire de la tranche supérieure","Países de ingresos medianos altos","بلد من الشريحة العليا من البلدان المتوسطة الدخل","中上等收入国家","страна с уровнем дохода выше среднего","Southern Africa","Afrique australe","África austral","الجنوب الأفريقي","南部非洲","Южная часть Африки"
"724","203","ES","ESP","Spain","Espagne","España","إسبانيا","西班牙","Испания","the Kingdom of Spain","le Royaume d'Espagne","el Reino de España","مملكة إسبانيا","西班牙王国","Королевство Испания","Europe","Europe","Europa","أوروبا","欧洲","Европа","High-income countries","Pays à revenu élevé","Países de ingresos altos","","高收入国家","страна с высоким уровнем дохода","Southern Europe","Europe méridionale","Europa meridional","أوروبا الجنوبية","南欧","Южная Европа"
"732","205","EH","ESH","Western Sahara","Sahara occidental","Sáhara Occidental","الصحراء الغربيّة","西撒哈拉","Западная Сахара","Western Sahara","le Sahara occidental","el Sáhara Occidental","الصحراء الغربيّة","西撒哈拉","Западная Сахара","Africa","Afrique","África","أفريقيا","非洲","Африка","Countries not classified by World Bank","Pays pas classé par la Banque Mondiale","Países no clasificados por el Banco Mundial","","","","Northern Africa","Afrique septentrionale","África septentrional","أفريقيا الشمالية","北非","Северная Африка"
"736","206","","","Sudan [former]","Soudan [ex-]","Sudán [ex]","السودان [السابق]","苏丹 [以前的]","Судан [бывший]","the Republic of the Sudan [former]","la République du Soudan [ex-]","la República del Sudán [ex]","السودان جمهورية [السابق]","苏丹共和国 [以前的]","Республика Судан [бывший]","Africa","Afrique","África","أفريقيا","非洲","Африка","Countries not classified by World Bank","Pays pas classé par la Banque Mondiale","Países no clasificados por el Banco Mundial","","","","Northern Africa","Afrique septentrionale","África septentrional","أفريقيا الشمالية","北非","Северная Африка"
"740","207","SR","SUR","Suriname","Suriname","Suriname","سورينام","苏里南","Суринам","the Republic of Suriname","la République du Suriname","la República de Suriname","جمهوريّة سورينام","苏里南共和国","Республика Суринам","Americas","Amériques","Américas","الأمريكتان","美洲","Северная и Южная Америка","Upper-middle income countries","Pays à revenu intermédiaire de la tranche supérieure","Países de ingresos medianos altos","بلد من الشريحة العليا من البلدان المتوسطة الدخل","中上等收入国家","страна с уровнем дохода выше среднего","South America","Amérique du Sud","América del Sur","أمريكا الجنوبية","南美洲","Южная Америка"
"762","208","TJ","TJK","Tajikistan","Tadjikistan","Tayikistán","طاجيكستان","塔吉克斯坦","Таджикистан","the Republic of Tajikistan","la République du Tadjikistan","la República de Tayikistán","جمهوريّة طاجيكستان","塔吉克斯坦共和国","Республика Таджикистан","Asia","Asie","Asia","آسيا","亚洲","Азия","Lower-middle income countries","Pays à revenu intermédiaire de la tranche inférieure","Países de ingresos medianos bajos","","","","Central Asia","Asie centrale","Asia central","آسيا الوسطى","中亚","Центральная Азия"
"748","209","SZ","SWZ","Eswatini","Eswatini","Eswatini","إسواتيني","斯威士兰","Эсватини","the Kingdom of Eswatini","le Royaume d’Eswatini","el Reino de Eswatini","مملكة إسواتيني","斯威士兰王国","Королевство Эсватини","Africa","Afrique","África","أفريقيا","非洲","Африка","Lower-middle income countries","Pays à revenu intermédiaire de la tranche inférieure","Países de ingresos medianos bajos","","","","Southern Africa","Afrique australe","África austral","الجنوب الأفريقي","南部非洲","Южная часть Африки"
"752","210","SE","SWE","Sweden","Suède","Suecia","السويد","瑞典","Швеция","the Kingdom of Sweden","le Royaume de Suède","el Reino de Suecia","مملكة السويد","瑞典王国","Королевство Швеция","Europe","Europe","Europa","أوروبا","欧洲","Европа","High-income countries","Pays à revenu élevé","Países de ingresos altos","","高收入国家","страна с высоким уровнем дохода","Northern Europe","Europe septentrionale","Europa del Norte","أوروبا الشمالية","北欧","Северная Европа"
"756","211","CH","CHE","Switzerland","Suisse","Suiza","سويسرا","瑞士","Швейцария","the Swiss Confederation","la Confédération suisse","la Confederación Suiza","الاتحاد السويسري","瑞士联邦","Швейцарская Конфедерация","Europe","Europe","Europa","أوروبا","欧洲","Европа","High-income countries","Pays à revenu élevé","Países de ingresos altos","","高收入国家","страна с высоким уровнем дохода","Western Europe","Europe occidentale","Europa occidental","أوروبا الغربية","西欧","Западная Европа"
"760","212","SY","SYR","Syrian Arab Republic","République arabe syrienne","República Árabe Siria","الجمهوريّة العربيّة السوريّة","阿拉伯叙利亚共和国","Сирийская Арабская Республика","the Syrian Arab Republic","la République arabe syrienne","la República Árabe Siria","الجمهوريّة العربيّة السوريّة","阿拉伯叙利亚共和国","Сирийская Арабская Республика","Asia","Asie","Asia","آسيا","亚洲","Азия","Low-income countries","Pays à faible revenu","Países de bajos ingresos","بلدان الدخل المنخفض","低收入国家(简写为LIC)","страна с низким уровнем дохода","Western Asia","Asie occidentale","Asia occidental","غربي آسيا","西亚","Западная Азия"
"795","213","TM","TKM","Turkmenistan","Turkménistan","Turkmenistán","تركمانستان","土库曼斯坦","Туркменистан","Turkmenistan","le Turkménistan","Turkmenistán","تركمانستان","土库曼斯坦","Туркменистан","Asia","Asie","Asia","آسيا","亚洲","Азия","Upper-middle income countries","Pays à revenu intermédiaire de la tranche supérieure","Países de ingresos medianos altos","بلد من الشريحة العليا من البلدان المتوسطة الدخل","中上等收入国家","страна с уровнем дохода выше среднего","Central Asia","Asie centrale","Asia central","آسيا الوسطى","中亚","Центральная Азия"
"158","214","TW","TWN","Taiwan Province of China","Province chinoise de Taïwan","Provincia china de Taiwán","مقاطعة تايوان الصينية","中国台湾省","китайская провинция Тайвань","Taiwan Province of China","la Province chinoise de Taïwan","la Provincia china de Taiwán","مقاطعة تايوان الصينية","中国台湾省","китайская провинция Тайвань","Asia","Asie","Asia","آسيا","亚洲","Азия","High-income countries","Pays à revenu élevé","Países de ingresos altos","","高收入国家","страна с высоким уровнем дохода","Eastern Asia","Asie orientale","Asia oriental","شرقي آسيا","东亚","Восточная Азия"
"834","215","TZ","TZA","United Republic of Tanzania","République-Unie de Tanzanie","República Unida de Tanzanía","جمهوريّة تنزانيا المتحدة","坦桑尼亚联合共和国","Объединенная Республика Танзания","the United Republic of Tanzania","la République-Unie de Tanzanie","la República Unida de Tanzanía","جمهوريّة تنزانيا المتحدة","坦桑尼亚联合共和国","Объединенная Республика Танзания","Africa","Afrique","África","أفريقيا","非洲","Африка","Lower-middle income countries","Pays à revenu intermédiaire de la tranche inférieure","Países de ingresos medianos bajos","","","","Eastern Africa","Afrique orientale","África oriental","شرق أفريقيا","东非","Восточная Африка"
"764","216","TH","THA","Thailand","Thaïlande","Tailandia","تايلند","泰国","Таиланд","the Kingdom of Thailand","le Royaume de Thaïlande","el Reino de Tailandia","مملكة تايلند","泰王国","Королевство Таиланд","Asia","Asie","Asia","آسيا","亚洲","Азия","Upper-middle income countries","Pays à revenu intermédiaire de la tranche supérieure","Países de ingresos medianos altos","بلد من الشريحة العليا من البلدان المتوسطة الدخل","中上等收入国家","страна с уровнем дохода выше среднего","South-Eastern Asia","Asie du Sud-Est","Asia sudoriental","جنوب شرقي آسيا","东南亚","Юго-Восточная Азия"
"768","217","TG","TGO","Togo","Togo","Togo","توغو","多哥","Того","the Togolese Republic","la République togolaise","la República Togolesa","جمهوريّة توغو","多哥共和国","Тоголезская Республика","Africa","Afrique","África","أفريقيا","非洲","Африка","Low-income countries","Pays à faible revenu","Países de bajos ingresos","بلدان الدخل المنخفض","低收入国家(简写为LIC)","страна с низким уровнем дохода","Western Africa","Afrique occidentale","África occidental","غرب أفريقيا","西非","Западная Африка"
"772","218","TK","TKL","Tokelau","Tokélaou","Tokelau","توكيلاو","托克劳","Токелау","Tokelau","les Tokélaou","Tokelau","توكيلاو","托克劳","Токелау","Oceania","Océanie","Oceanía","أوقيانوسيا","大洋洲","Океания","Countries not classified by World Bank","Pays pas classé par la Banque Mondiale","Países no clasificados por el Banco Mundial","","","","Polynesia","Polynésie","Polinesia","بولينيزيا","波利尼西亚","Полинезия"
"776","219","TO","TON","Tonga","Tonga","Tonga","تونغا","汤加","Тонга","the Kingdom of Tonga","le Royaume des Tonga","el Reino de Tonga","مملكة تونغا","汤加王国","Королевство Тонга","Oceania","Océanie","Oceanía","أوقيانوسيا","大洋洲","Океания","Upper-middle income countries","Pays à revenu intermédiaire de la tranche supérieure","Países de ingresos medianos altos","بلد من الشريحة العليا من البلدان المتوسطة الدخل","中上等收入国家","страна с уровнем дохода выше среднего","Polynesia","Polynésie","Polinesia","بولينيزيا","波利尼西亚","Полинезия"
"780","220","TT","TTO","Trinidad and Tobago","Trinité-et-Tobago","Trinidad y Tabago","ترينيداد وتوباغو","特立尼达和多巴哥","Тринидад и Тобаго","the Republic of Trinidad and Tobago","la République de Trinité-et-Tobago","la República de Trinidad y Tabago","جمهوريّة ترينيداد وتوباغو","特立尼达和多巴哥共和国","Республика Тринидад и Тобаго","Americas","Amériques","Américas","الأمريكتان","美洲","Северная и Южная Америка","High-income countries","Pays à revenu élevé","Países de ingresos altos","","高收入国家","страна с высоким уровнем дохода","Caribbean","Caraïbes","Caribe","منطقة البحر الكاريبي","加勒比","Карибский бассейн"
"512","221","OM","OMN","Oman","Oman","Omán","عمان","阿曼","Оман","the Sultanate of Oman","le Sultanat d'Oman","la Sultanía de Omán","سلطنة عمان","阿曼苏丹国","Султанат Оман","Asia","Asie","Asia","آسيا","亚洲","Азия","High-income countries","Pays à revenu élevé","Países de ingresos altos","","高收入国家","страна с высоким уровнем дохода","Western Asia","Asie occidentale","Asia occidental","غربي آسيا","西亚","Западная Азия"
"788","222","TN","TUN","Tunisia","Tunisie","Túnez","تونس","突尼斯","Тунис","the Republic of Tunisia","la République tunisienne","la República de Túnez","الجمهوريّة التونسية","突尼斯共和国","Тунисская Республика","Africa","Afrique","África","أفريقيا","非洲","Африка","Lower-middle income countries","Pays à revenu intermédiaire de la tranche inférieure","Países de ingresos medianos bajos","","","","Northern Africa","Afrique septentrionale","África septentrional","أفريقيا الشمالية","北非","Северная Африка"
"792","223","TR","TUR","Türkiye","Türkiye","Türkiye","تركيا","土耳其","Турция","the Republic of Türkiye","la République de Türkiye","la República de Türkiye","الجمهوريّة التركية","土耳其共和国","Турецкая Республика","Asia","Asie","Asia","آسيا","亚洲","Азия","Upper-middle income countries","Pays à revenu intermédiaire de la tranche supérieure","Países de ingresos medianos altos","بلد من الشريحة العليا من البلدان المتوسطة الدخل","中上等收入国家","страна с уровнем дохода выше среднего","Western Asia","Asie occidentale","Asia occidental","غربي آسيا","西亚","Западная Азия"
"796","224","TC","TCA","Turks and Caicos Islands","Îles Turques-et-Caïques","Islas Turcas y Caicos","جزر تركس وكايكوس","特克斯和凯科斯群岛","острова Тёркс и Кайкос","the Turks and Caicos Islands","les Îles Turques-et-Caïques","las Islas Turcas y Caicos","جزر تركس وكايكوس","特克斯和凯科斯群岛","острова Тёркс и Кайкос","Americas","Amériques","Américas","الأمريكتان","美洲","Северная и Южная Америка","High-income countries","Pays à revenu élevé","Países de ingresos altos","","高收入国家","страна с высоким уровнем дохода","Caribbean","Caraïbes","Caribe","منطقة البحر الكاريبي","加勒比","Карибский бассейн"
"784","225","AE","ARE","United Arab Emirates","Émirats arabes unis","Emiratos Árabes Unidos","الإمارات العربيّة المتحدة","阿拉伯联合酋长国","Объединенные Арабские Эмираты","the United Arab Emirates","les Émirats arabes unis","los Emiratos Árabes Unidos","الإمارات العربيّة المتحدة","阿拉伯联合酋长国","Объединенные Арабские Эмираты","Asia","Asie","Asia","آسيا","亚洲","Азия","High-income countries","Pays à revenu élevé","Países de ingresos altos","","高收入国家","страна с высоким уровнем дохода","Western Asia","Asie occidentale","Asia occidental","غربي آسيا","西亚","Западная Азия"
"800","226","UG","UGA","Uganda","Ouganda","Uganda","أوغندا","乌干达","Уганда","the Republic of Uganda","la République de l'Ouganda","la República de Uganda","جمهوريّة أوغندا","乌干达共和国","Республика Уганда","Africa","Afrique","África","أفريقيا","非洲","Африка","Low-income countries","Pays à faible revenu","Países de bajos ingresos","بلدان الدخل المنخفض","低收入国家(简写为LIC)","страна с низким уровнем дохода","Eastern Africa","Afrique orientale","África oriental","شرق أفريقيا","东非","Восточная Африка"
"798","227","TV","TUV","Tuvalu","Tuvalu","Tuvalu","توفالو","图瓦卢","Тувалу","Tuvalu","les Tuvalu","Tuvalu","توفالو","图瓦卢","Тувалу","Oceania","Océanie","Oceanía","أوقيانوسيا","大洋洲","Океания","Upper-middle income countries","Pays à revenu intermédiaire de la tranche supérieure","Países de ingresos medianos altos","بلد من الشريحة العليا من البلدان المتوسطة الدخل","中上等收入国家","страна с уровнем дохода выше среднего","Polynesia","Polynésie","Polinesia","بولينيزيا","波利尼西亚","Полинезия"
"810","228","SU","SUN","Union of Soviet Socialist Republics [former]","Union des Républiques socialistes soviétiques [ex-]","Unión de Repúblicas Socialistas Soviéticas [ex]","","","","Union of Soviet Socialist Republics [former]","Union des Républiques socialistes soviétiques [ex-]","Unión de Repúblicas Socialistas Soviéticas [ex]","","","","","","","","","","Countries not classified by World Bank","Pays pas classé par la Banque Mondiale","Países no clasificados por el Banco Mundial","","","","","","","","",""
"826","229","GB","GBR","United Kingdom of Great Britain and Northern Ireland","Royaume-Uni de Grande-Bretagne et d'Irlande du Nord","Reino Unido de Gran Bretaña e Irlanda del Norte","المملكة المتحدة لبريطانيا العظمى وأيرلندا الشمالية","大不列颠及北爱尔兰联合王国","Соединенное Королевство Великобритании и Северной Ирландии","the United Kingdom of Great Britain and Northern Ireland","le Royaume-Uni de Grande-Bretagne et d'Irlande du Nord","el Reino Unido de Gran Bretaña e Irlanda del Norte","المملكة المتحدة لبريطانيا العظمى وأيرلندا الشمالية","大不列颠及北爱尔兰联合王国","Соединенное Королевство Великобритании и Северной Ирландии","Europe","Europe","Europa","أوروبا","欧洲","Европа","High-income countries","Pays à revenu élevé","Países de ingresos altos","","高收入国家","страна с высоким уровнем дохода","Northern Europe","Europe septentrionale","Europa del Norte","أوروبا الشمالية","北欧","Северная Европа"
"804","230","UA","UKR","Ukraine","Ukraine","Ucrania","أوكرانيا","乌克兰","Украина","Ukraine","l'Ukraine","Ucrania","أوكرانيا","乌克兰","Украина","Europe","Europe","Europa","أوروبا","欧洲","Европа","Upper-middle income countries","Pays à revenu intermédiaire de la tranche supérieure","Países de ingresos medianos altos","بلد من الشريحة العليا من البلدان المتوسطة الدخل","中上等收入国家","страна с уровнем дохода выше среднего","Eastern Europe","Europe orientale","Europa oriental","أوروبا الشرقية","东欧","Восточная Европа"
"840","231","US","USA","United States of America","États-Unis d'Amérique","Estados Unidos de América","الولايات المتحدة الأمريكيّة","美利坚合众国","Соединенные Штаты Америки","the United States of America","les États-Unis d'Amérique","los Estados Unidos de América","الولايات المتحدة الأمريكيّة","美利坚合众国","Соединенные Штаты Америки","Americas","Amériques","Américas","الأمريكتان","美洲","Северная и Южная Америка","High-income countries","Pays à revenu élevé","Países de ingresos altos","","高收入国家","страна с высоким уровнем дохода","Northern America","Amérique du Nord","América del Norte","أمريكا الشمالية","北美","Северная Америка"
"581","232","UM","UMI","United States Minor Outlying Islands","Îles mineures éloignées des États-Unis","Islas menores alejadas de los Estados Unidos","جزر الولايات المتحدة الصغرى","美国本土外小岛屿","Внешние малые острова Соединенных Штатов Америки","the United States Minor Outlying Islands","les Îles mineures éloignées des États-Unis","las Islas menores alejadas de los Estados Unidos","جزر الولايات المتحدة الصغرى","美国本土外小岛屿","Внешние малые острова Соединенных Штатов Америки","Oceania","Océanie","Oceanía","أوقيانوسيا","大洋洲","Океания","Countries not classified by World Bank","Pays pas classé par la Banque Mondiale","Países no clasificados por el Banco Mundial","","","","Micronesia","Micronésie","Micronesia","ميكرونيزيا","密克罗尼西亚","Микронезия"
"854","233","BF","BFA","Burkina Faso","Burkina Faso","Burkina Faso","بوركينا فاسو","布基纳法索","Буркина-Фасо","Burkina Faso","le Burkina Faso","Burkina Faso","بوركينا فاسو","布基纳法索","Буркина-Фасо","Africa","Afrique","África","أفريقيا","非洲","Африка","Low-income countries","Pays à faible revenu","Países de bajos ingresos","بلدان الدخل المنخفض","低收入国家(简写为LIC)","страна с низким уровнем дохода","Western Africa","Afrique occidentale","África occidental","غرب أفريقيا","西非","Западная Африка"
"858","234","UY","URY","Uruguay","Uruguay","Uruguay","أوروغواي","乌拉圭","Уругвай","the Eastern Republic of Uruguay","la République orientale de l'Uruguay","la República Oriental del Uruguay","جمهوريّة أوروغواي الشرقيّة","乌拉圭东岸共和国","Восточная Республика Уругвай","Americas","Amériques","Américas","الأمريكتان","美洲","Северная и Южная Америка","High-income countries","Pays à revenu élevé","Países de ingresos altos","","高收入国家","страна с высоким уровнем дохода","South America","Amérique du Sud","América del Sur","أمريكا الجنوبية","南美洲","Южная Америка"
"860","235","UZ","UZB","Uzbekistan","Ouzbékistan","Uzbekistán","أوزبكستان","乌兹别克斯坦","Узбекистан","the Republic of Uzbekistan","la République d'Ouzbékistan","la República de Uzbekistán","جمهوريّة أوزبكستان","乌兹别克斯坦共和国","Республика Узбекистан","Asia","Asie","Asia","آسيا","亚洲","Азия","Lower-middle income countries","Pays à revenu intermédiaire de la tranche inférieure","Países de ingresos medianos bajos","","","","Central Asia","Asie centrale","Asia central","آسيا الوسطى","中亚","Центральная Азия"
"862","236","VE","VEN","Venezuela (Bolivarian Republic of)","Venezuela (République bolivarienne du)","Venezuela (República Bolivariana de)","فنزويلا (جمهورية - البوليفارية)","委内瑞拉玻利瓦尔共和国","Венесуэла (Боливарианская Республика)","the Bolivarian Republic of Venezuela","la République bolivarienne du Venezuela","la República Bolivariana de Venezuela","جمهوريّة فنزويلا البوليفاريّة","委内瑞拉玻利瓦尔共和国","Боливарианская Республика Венесуэла","Americas","Amériques","Américas","الأمريكتان","美洲","Северная и Южная Америка","Upper-middle income countries","Pays à revenu intermédiaire de la tranche supérieure","Países de ingresos medianos altos","بلد من الشريحة العليا من البلدان المتوسطة الدخل","中上等收入国家","страна с уровнем дохода выше среднего","South America","Amérique du Sud","América del Sur","أمريكا الجنوبية","南美洲","Южная Америка"
"704","237","VN","VNM","Viet Nam","Viet Nam","Viet Nam","فييت نام","越南","Вьетнам","the Socialist Republic of Viet Nam","la République socialiste du Viet Nam","la República Socialista de Viet Nam","جمهورية فييت نام الاشتراكية","越南社会主义共和国","Социалистическая Республика Вьетнам","Asia","Asie","Asia","آسيا","亚洲","Азия","Lower-middle income countries","Pays à revenu intermédiaire de la tranche inférieure","Países de ingresos medianos bajos","","","","South-Eastern Asia","Asie du Sud-Est","Asia sudoriental","جنوب شرقي آسيا","东南亚","Юго-Восточная Азия"
"231","238","ET","ETH","Ethiopia","Éthiopie","Etiopía","إثيوبيا","埃塞俄比亚","Эфиопия","the Federal Democratic Republic of Ethiopia","la République fédérale démocratique d'Éthiopie","la República Democrática Federal de Etiopía","جمهوريّة إثيوبيا الديمقراطيّة الاتحاديّة","埃塞俄比亚联邦民主共和国","Федеративная Демократическая Республика Эфиопия","Africa","Afrique","África","أفريقيا","非洲","Африка","Low-income countries","Pays à faible revenu","Países de bajos ingresos","بلدان الدخل المنخفض","低收入国家(简写为LIC)","страна с низким уровнем дохода","Eastern Africa","Afrique orientale","África oriental","شرق أفريقيا","东非","Восточная Африка"
"092","239","VG","VGB","British Virgin Islands","Îles Vierges britanniques","Islas Vírgenes Británicas","جزر فيرجين البريطانيّة","英属维尔京群岛","Британские Виргинские острова","the British Virgin Islands","les Îles Vierges britanniques","las Islas Vírgenes Británicas","جزر فيرجين البريطانيّة","英属维尔京群岛","Британские Виргинские острова","Americas","Amériques","Américas","الأمريكتان","美洲","Северная и Южная Америка","High-income countries","Pays à revenu élevé","Países de ingresos altos","","高收入国家","страна с высоким уровнем дохода","Caribbean","Caraïbes","Caribe","منطقة البحر الكاريبي","加勒比","Карибский бассейн"
"850","240","VI","VIR","United States Virgin Islands","Îles Vierges américaines","Islas Vírgenes de los Estados Unidos","جزر فيرجين التابعة للولايات المتحدة","美属维尔京群岛","Виргинские острова Соединенных Штатов","the United States Virgin Islands","les Îles Vierges américaines","las Islas Vírgenes de los Estados Unidos","جزر فيرجين التابعة للولايات المتحدة","美属维尔京群岛","Виргинские острова Соединенных Штатов","Americas","Amériques","Américas","الأمريكتان","美洲","Северная и Южная Америка","High-income countries","Pays à revenu élevé","Países de ingresos altos","","高收入国家","страна с высоким уровнем дохода","Caribbean","Caraïbes","Caribe","منطقة البحر الكاريبي","加勒比","Карибский бассейн"
"872","242","WK","WAK","Wake Island [former]","Îles Wake [ex-]","Isla Wake [ex]","جزيرة ويك [السابق]","威克岛 [以前的]","остров Уэйк [бывший]","Wake Island [former]","les Îles Wake [ex-]","la Isla Wake [ex]","جزيرة ويك [السابق]","威克岛 [以前的]","остров Уэйк [бывший]","","","","","","","","","","","","","","","","","",""
"876","243","WF","WLF","Wallis and Futuna Islands","Îles Wallis-et-Futuna","Islas Wallis y Futuna","جزر واليس وفوتونا","瓦利斯和富图纳群岛","острова Уоллис и Футуна","the Wallis and Futuna Islands","les Îles Wallis-et-Futuna","las Islas Wallis y Futuna","جزر واليس وفوتونا","瓦利斯和富图纳群岛","острова Уоллис и Футуна","Oceania","Océanie","Oceanía","أوقيانوسيا","大洋洲","Океания","Countries not classified by World Bank","Pays pas classé par la Banque Mondiale","Países no clasificados por el Banco Mundial","","","","Polynesia","Polynésie","Polinesia","بولينيزيا","波利尼西亚","Полинезия"
"882","244","WS","WSM","Samoa","Samoa","Samoa","ساموا","萨摩亚","Самоа","the Independent State of Samoa","l'État indépendant du Samoa","el Estado Independiente de Samoa","دولة ساموا المستقلة","萨摩亚独立国","Независимое Государство Самоа","Oceania","Océanie","Oceanía","أوقيانوسيا","大洋洲","Океания","Lower-middle income countries","Pays à revenu intermédiaire de la tranche inférieure","Países de ingresos medianos bajos","","","","Polynesia","Polynésie","Polinesia","بولينيزيا","波利尼西亚","Полинезия"
"402","245","","","West Bank [former]","Cisjordanie [ex-]","Ribera Occidental [ex]","الضفة الغربيّة [السابق]","西岸 [以前的]","Западный берег [бывший]","the West Bank [former]","Cisjordanie [ex-]","Ribera Occidental [ex]","الضفة الغربيّة [السابق]","西岸 [以前的]","Западный берег [бывший]","Asia","Asie","Asia","آسيا","亚洲","Азия","","","","","","","Western Asia","Asie occidentale","Asia occidental","غربي آسيا","西亚","Западная Азия"
"886","246","","","Yemen Arab Republic [former]","Yemen, Républic Arabe [ex-]","Yemen, República Araba [ex]","","","","Yemen Arab Republic [former]","Yemen, Républic Arabe [ex-]","Yemen, República Araba [ex]","","","","Asia","Asie","Asia","آسيا","亚洲","Азия","","","","","","","Western Asia","Asie occidentale","Asia occidental","غربي آسيا","西亚","Западная Азия"
"720","247","","","Yemen, Democratic [former]","Yemen Democratique [ex-]","Yemen Democrático [ex]","","","","","","","","","","Asia","Asie","Asia","آسيا","亚洲","Азия","","","","","","","Western Asia","Asie occidentale","Asia occidental","غربي آسيا","西亚","Западная Азия"
"890","248","YU","YUG","Yugoslavia SFR [former]","RFS de Yougoslavie [ex-]","RFS de Yugoslavia [ex]","","","","Socialist Federal Republic of Yugoslavia [former]","République socialiste fédérative de Yougoslavie [ex-]","República Federativa Socialista de Yugoslavia [ex]","","","","Europe","Europe","Europa","أوروبا","欧洲","Европа","Countries not classified by World Bank","Pays pas classé par la Banque Mondiale","Países no clasificados por el Banco Mundial","","","","Southern Europe","Europe méridionale","Europa meridional","أوروبا الجنوبية","南欧","Южная Европа"
"887","249","YE","YEM","Yemen","Yémen","Yemen","اليمن","也门","Йемен","the Republic of Yemen","la République du Yémen","la República del Yemen","الجمهوريّة اليمنيّة","也门共和国","Йеменская Республика","Asia","Asie","Asia","آسيا","亚洲","Азия","Low-income countries","Pays à faible revenu","Países de bajos ingresos","بلدان الدخل المنخفض","低收入国家(简写为LIC)","страна с низким уровнем дохода","Western Asia","Asie occidentale","Asia occidental","غربي آسيا","西亚","Западная Азия"
"180","250","CD","COD","Democratic Republic of the Congo","République démocratique du Congo","República Democrática del Congo","جمهوريّة الكونغو الديمقراطية","刚果民主共和国","Демократическая Республика Конго","the Democratic Republic of the Congo","la République démocratique du Congo","la República Democrática del Congo","جمهوريّة الكونغو الديمقراطية","刚果民主共和国","Демократическая Республика Конго","Africa","Afrique","África","أفريقيا","非洲","Африка","Low-income countries","Pays à faible revenu","Países de bajos ingresos","بلدان الدخل المنخفض","低收入国家(简写为LIC)","страна с низким уровнем дохода","Middle Africa","Afrique centrale","África central","وسط أفريقيا","中非","Центральная Африка"
"894","251","ZM","ZMB","Zambia","Zambie","Zambia","زامبيا","赞比亚","Замбия","the Republic of Zambia","la République de Zambie","la República de Zambia","جمهوريّة زامبيا","赞比亚共和国","Республика Замбия","Africa","Afrique","África","أفريقيا","非洲","Африка","Lower-middle income countries","Pays à revenu intermédiaire de la tranche inférieure","Países de ingresos medianos bajos","","","","Eastern Africa","Afrique orientale","África oriental","شرق أفريقيا","东非","Восточная Африка"
"896","252","","","Other NEI","Autres NCA","Otros NEP","","","","Other NEI","Autres NCA","Otros NEP","","","","","","","","","","Countries not classified by World Bank","Pays pas classé par la Banque Mondiale","Países no clasificados por el Banco Mundial","","","","","","","","",""
"056","255","BE","BEL","Belgium","Belgique","Bélgica","بلجيكا","比利时","Бельгия","the Kingdom of Belgium","le Royaume de Belgique","el Reino de Bélgica","مملكة بلجيكا","比利时王国","Королевство Бельгия","Europe","Europe","Europa","أوروبا","欧洲","Европа","High-income countries","Pays à revenu élevé","Países de ingresos altos","","高收入国家","страна с высоким уровнем дохода","Western Europe","Europe occidentale","Europa occidental","أوروبا الغربية","西欧","Западная Европа"
"442","256","LU","LUX","Luxembourg","Luxembourg","Luxemburgo","لكسمبرغ","卢森堡","Люксембург","the Grand Duchy of Luxembourg","le Grand-Duché de Luxembourg","el Gran Ducado de Luxemburgo","دوقية لكسمبرغ الكبرى","卢森堡大公国","Великое Герцогство Люксембург","Europe","Europe","Europa","أوروبا","欧洲","Европа","High-income countries","Pays à revenu élevé","Países de ingresos altos","","高收入国家","страна с высоким уровнем дохода","Western Europe","Europe occidentale","Europa occidental","أوروبا الغربية","西欧","Западная Европа"
"660","258","AI","AIA","Anguilla","Anguilla","Anguila","أنغويلا","安圭拉","Ангилья","Anguilla","Anguilla","Anguila","أنغويلا","安圭拉","Ангилья","Americas","Amériques","Américas","الأمريكتان","美洲","Северная и Южная Америка","Countries not classified by World Bank","Pays pas classé par la Banque Mondiale","Países no clasificados por el Banco Mundial","","","","Caribbean","Caraïbes","Caribe","منطقة البحر الكاريبي","加勒比","Карибский бассейн"
"830","259","","","Channel Islands","Îles Anglo-Normandes","Islas Anglonormandas","جزر شانيل","海峡群岛","Нормандские острова","the Channel Islands","les Îles Anglo-Normandes","las Islas Anglonormandas","جزر شانيل","海峡群岛","Нормандские острова","Europe","Europe","Europa","أوروبا","欧洲","Европа","High-income countries","Pays à revenu élevé","Países de ingresos altos","","高收入国家","страна с высоким уровнем дохода","Northern Europe","Europe septentrionale","Europa del Norte","أوروبا الشمالية","北欧","Северная Европа"
"744","260","SJ","SJM","Svalbard and Jan Mayen Islands","Îles Svalbard-et-Jan Mayen","Islas Svalbard y Jan Mayen","جزر سفالبارد وجان مايين","斯瓦尔巴和扬马延群岛","острова Шпицберген и Ян Майен","the Svalbard and Jan Mayen Islands","les Îles Svalbard-et-Jan Mayen","las Islas Svalbard y Jan Mayen","جزر سفالبارد وجان مايين","斯瓦尔巴和扬马延群岛","острова Шпицберген и Ян Майен","Europe","Europe","Europa","أوروبا","欧洲","Европа","Countries not classified by World Bank","Pays pas classé par la Banque Mondiale","Países no clasificados por el Banco Mundial","","","","Northern Europe","Europe septentrionale","Europa del Norte","أوروبا الشمالية","北欧","Северная Европа"
"833","264","IM","IMN","Isle of Man","Île de Man","Isla de Man","جزيرة مان","马恩岛","остров Мэн","the Isle of Man","l'Île de Man","la Isla de Man","جزيرة مان","马恩岛","остров Мэн","Europe","Europe","Europa","أوروبا","欧洲","Европа","High-income countries","Pays à revenu élevé","Países de ingresos altos","","高收入国家","страна с высоким уровнем дохода","Northern Europe","Europe septentrionale","Europa del Norte","أوروبا الشمالية","北欧","Северная Европа"
"175","270","YT","MYT","Mayotte","Mayotte","Mayotte","مايوت","马约特","Майотта","Mayotte","Mayotte","Mayotte","مايوت","马约特","Майотта","Africa","Afrique","África","أفريقيا","非洲","Африка","Countries not classified by World Bank","Pays pas classé par la Banque Mondiale","Países no clasificados por el Banco Mundial","","","","Eastern Africa","Afrique orientale","África oriental","شرق أفريقيا","东非","Восточная Африка"
"239","271","GS","SGS","South Georgia and the South Sandwich Islands","Géorgie du Sud-et-Îles Sandwich du Sud","Georgia del Sur y las Islas Sandwich del Sur","جزر جنوب جورجيا وساندويتش","南乔治亚岛和南桑威奇群岛","остров Южная Георгия и Южные Сандвичевы острова","South Georgia and the South Sandwich Islands","Géorgie du Sud-et-Îles Sandwich du Sud","Georgia del Sur y las Islas Sandwich del Sur","جزر جنوب جورجيا وساندويتش","南乔治亚岛和南桑威奇群岛","остров Южная Георгия и Южные Сандвичевы острова","Americas","Amériques","Américas","الأمريكتان","美洲","Северная и Южная Америка","Countries not classified by World Bank","Pays pas classé par la Banque Mondiale","Países no clasificados por el Banco Mundial","","","","South America","Amérique du Sud","América del Sur","أمريكا الجنوبية","南美洲","Южная Америка"
"688","272","RS","SRB","Serbia","Serbie","Serbia","صربيا","塞尔维亚","Сербия","the Republic of Serbia","la République de Serbie","la República de Serbia","جمهوريّة صربيا","塞尔维亚共和国","Республика Сербия","Europe","Europe","Europa","أوروبا","欧洲","Европа","Upper-middle income countries","Pays à revenu intermédiaire de la tranche supérieure","Países de ingresos medianos altos","بلد من الشريحة العليا من البلدان المتوسطة الدخل","中上等收入国家","страна с уровнем дохода выше среднего","Southern Europe","Europe méridionale","Europa meridional","أوروبا الجنوبية","南欧","Южная Европа"
"499","273","ME","MNE","Montenegro","Monténégro","Montenegro","الجبل الأسود","黑山","Черногория","Montenegro","le Monténégro","Montenegro","الجبل الأسود","黑山","Черногория","Europe","Europe","Europa","أوروبا","欧洲","Европа","Upper-middle income countries","Pays à revenu intermédiaire de la tranche supérieure","Países de ingresos medianos altos","بلد من الشريحة العليا من البلدان المتوسطة الدخل","中上等收入国家","страна с уровнем дохода выше среднего","Southern Europe","Europe méridionale","Europa meridional","أوروبا الجنوبية","南欧","Южная Европа"
"836","276","","EAZ","United Republic of Tanzania, Zanzibar","République-Unie de Tanzanie, Zanzibar","República Unida de Tanzanía, Zanzibar","جمهوريّة تنزانيا المتحدة، زنجبار","坦桑尼亚联合共和国桑给巴尔","Объединенная Республика Танзания, Занзибар","the United Republic of Tanzania, Zanzibar","la République-Unie de Tanzanie, Zanzibar","la República Unida de Tanzanía, Zanzibar","جمهوريّة تنزانيا المتحدة، زنجبار","坦桑尼亚联合共和国桑给巴尔","Объединенная Республика Танзания, Занзибар","Africa","Afrique","África","أفريقيا","非洲","Африка","Lower-middle income countries","Pays à revenu intermédiaire de la tranche inférieure","Países de ingresos medianos bajos","","","","Eastern Africa","Afrique orientale","África oriental","شرق أفريقيا","东非","Восточная Африка"
"532","278","AN","ANT","Netherlands Antilles [former]","Antilles néerlandaises [ex-]","Antillas Neerlandesas [ex]","من جزر الأنتيل الهولندية [السابق]","荷属安的列斯人/属安的列斯人的 [以前的]","(из/ житель) Голландских Антильских островов [бывший]","Netherlands Antilles [former]","les Antilles néerlandaises [ex-]","Antillas Neerlandesas [ex]","من جزر الأنتيل الهولندية [السابق]","荷属安的列斯人/属安的列斯人的 [以前的]","(из/ житель) Голландских Антильских островов [бывший]","","","","","","","","","","","","","","","","","",""
"248","282","AX","ALA","Åland Islands","Îles d'Åland","Islas Åland","جزر ألاند","奥兰群岛","Аландские острова","the Åland Islands","les Îles d'Åland","las Islas Åland","جزر ألاند","奥兰群岛","Аландские острова","Europe","Europe","Europa","أوروبا","欧洲","Европа","Countries not classified by World Bank","Pays pas classé par la Banque Mondiale","Países no clasificados por el Banco Mundial","","","","Northern Europe","Europe septentrionale","Europa del Norte","أوروبا الشمالية","北欧","Северная Европа"
"535","283","BQ","BES","Bonaire, Sint Eustatius and Saba","Bonaire, Saint-Eustache et Saba","Bonaire, San Eustaquio y Saba","بونير وسان يوستاتيوس وسابا","博纳尔、圣俄斯塔休斯和萨巴","Бонайре, Синт-Эстатиус и Саба","Bonaire, Sint Eustatius and Saba","Bonaire, Saint-Eustache et Saba","Bonaire, San Eustaquio y Saba","بونير وسان يوستاتيوس وسابا","博纳尔、圣俄斯塔休斯和萨巴","Бонайре, Синт-Эстатиус и Саба","Americas","Amériques","Américas","الأمريكتان","美洲","Северная и Южная Америка","Countries not classified by World Bank","Pays pas classé par la Banque Mondiale","Países no clasificados por el Banco Mundial","","","","Caribbean","Caraïbes","Caribe","منطقة البحر الكاريبي","加勒比","Карибский бассейн"
"831","284","GG","GGY","Guernsey","Guernesey","Guernesey","غيرنسي","根西","Гернси","the Bailiwick of Guernsey","le Bailliage de Guernesey","el Bailiazgo de Guernesey","إقليم غيرنسي","根西行政区","округ бейлифа Гернси","Europe","Europe","Europa","أوروبا","欧洲","Европа","High-income countries","Pays à revenu élevé","Países de ingresos altos","","高收入国家","страна с высоким уровнем дохода","Northern Europe","Europe septentrionale","Europa del Norte","أوروبا الشمالية","北欧","Северная Европа"
"832","285","JE","JEY","Jersey","Jersey","Jersey","جيرسي","泽西","Джерси","the Bailiwick of Jersey","le Bailliage de Jersey","el Bailiazgo de Jersey","إقليم جيرسي","泽西行政区","округ бейлифа Джерси","Europe","Europe","Europa","أوروبا","欧洲","Европа","High-income countries","Pays à revenu élevé","Países de ingresos altos","","高收入国家","страна с высоким уровнем дохода","Northern Europe","Europe septentrionale","Europa del Norte","أوروبا الشمالية","北欧","Северная Европа"
"531","286","CW","CUW","Curaçao","Curaçao","Curaçao","كوراساو","库拉索","Кюрасао","Curaçao","Curaçao","Curaçao","كوراساو","库拉索","Кюрасао","Americas","Amériques","Américas","الأمريكتان","美洲","Северная и Южная Америка","High-income countries","Pays à revenu élevé","Países de ingresos altos","","高收入国家","страна с высоким уровнем дохода","Caribbean","Caraïbes","Caribe","منطقة البحر الكاريبي","加勒比","Карибский бассейн"
"652","287","BL","BLM","Saint Barthélemy","Saint-Barthélemy","San Bartolomé","سان بارتليمي","圣巴泰勒米","Сен-Бартелеми","Saint Barthélemy","Saint-Barthélemy","San Bartolomé","سان بارتليمي","圣巴泰勒米","Сен-Бартелеми","Americas","Amériques","Américas","الأمريكتان","美洲","Северная и Южная Америка","Countries not classified by World Bank","Pays pas classé par la Banque Mondiale","Países no clasificados por el Banco Mundial","","","","Caribbean","Caraïbes","Caribe","منطقة البحر الكاريبي","加勒比","Карибский бассейн"
"663","288","MF","MAF","Saint Martin (French part)","Saint-Martin (partie française)","San Martín (parte francesa)","سان مارتن - الجزء الفرنسي","圣马丁（法属部分）","Сен-Мартен (французская часть)","Saint-Martin (French part)","Saint-Martin (partie française)","San Martín (parte francesa)","سان مارتن - الجزء الفرنسي","圣马丁（法属部分）","Сен-Мартен (французская часть)","Americas","Amériques","Américas","الأمريكتان","美洲","Северная и Южная Америка","High-income countries","Pays à revenu élevé","Países de ingresos altos","","高收入国家","страна с высоким уровнем дохода","Caribbean","Caraïbes","Caribe","منطقة البحر الكاريبي","加勒比","Карибский бассейн"
"534","289","SX","SXM","Sint Maarten (Dutch part)","Sint Maarten (partie néerlandaise)","Sint Maarten (parte de los Países Bajos)","سانت مارتن - الجزء الهولندي","圣马丁（荷属部分）","Синт-Мартен (нидерландская часть)","Sint Maarten (Dutch part)","Sint Maarten (partie néerlandaise)","Sint Maarten (parte de los Países Bajos)","سانت مارتن - الجزء الهولندي","圣马丁（荷属部分）","Синт-Мартен (нидерландская часть)","Americas","Amériques","Américas","الأمريكتان","美洲","Северная и Южная Америка","High-income countries","Pays à revenu élevé","Países de ingresos altos","","高收入国家","страна с высоким уровнем дохода","Caribbean","Caraïbes","Caribe","منطقة البحر الكاريبي","加勒比","Карибский бассейн"
"728","290","SS","SSD","South Sudan","Soudan du Sud","Sudán del Sur","جنوب السودان","南苏丹","Южный Судан","the Republic of South Sudan","la République du Soudan du Sud","la República de Sudán del Sur","جمهوريّة جنوب السودان","南苏丹共和国","Республика Южный Судан","Africa","Afrique","África","أفريقيا","非洲","Африка","Low-income countries","Pays à faible revenu","Países de bajos ingresos","بلدان الدخل المنخفض","低收入国家(简写为LIC)","страна с низким уровнем дохода","Eastern Africa","Afrique orientale","África oriental","شرق أفريقيا","东非","Восточная Африка"
"680","294","","","Sark","Sercq","Sark","سارك","萨克","Сарк","Sark","Sercq","Sark","سارك","萨克","Сарк","Europe","Europe","Europa","أوروبا","欧洲","Европа","High-income countries","Pays à revenu élevé","Países de ingresos altos","","高收入国家","страна с высоким уровнем дохода","Northern Europe","Europe septentrionale","Europa del Norte","أوروبا الشمالية","北欧","Северная Европа"
"729","298","SD","SDN","Sudan","Soudan","Sudán","السودان","苏丹","Судан","the Republic of the Sudan","la République du Soudan","la República del Sudán","جمهوريّة السودان","苏丹共和国","Республика Судан","Africa","Afrique","África","أفريقيا","非洲","Африка","Low-income countries","Pays à faible revenu","Países de bajos ingresos","بلدان الدخل المنخفض","低收入国家(简写为LIC)","страна с низким уровнем дохода","Northern Africa","Afrique septentrionale","África septentrional","أفريقيا الشمالية","北非","Северная Африка"
"275","299","PS","PSE","Palestine","Palestine","Palestina","فلسطين","巴勒斯坦","Палестина","Palestine","Palestine","Palestina","فلسطين","巴勒斯坦","Палестина","Asia","Asie","Asia","آسيا","亚洲","Азия","Lower-middle income countries","Pays à revenu intermédiaire de la tranche inférieure","Países de ingresos medianos bajos","","","","Western Asia","Asie occidentale","Asia occidental","غربي آسيا","西亚","Западная Азия"
"0","380","EU","EUR","European Union","Union européenne","Unión Europea","الإتحاد الأوروبي","欧洲联盟","Европейский союз","the European Union","l'Union européenne","la Unión Europea","الإتحاد الأوروبي","欧洲联盟","Европейский союз","","","","","","","","","","","","","","","","","",""
